retrodb_id	organism_name	parental_accession	potential_parentals	chromosome	start	end	strand	status	external_id	inside_intron_of	aliases	percent_identity	frameshift_number	stop_codon_number	indel_number	parental_protein_id	parental_protein_coverage	parental_protein_length	parental_protein_start	parental_protein_end	aligned_parental	aligned_retrogene
retro_dmel_1	drosophila_melanogaster	FBgn0030268		2R	19029688	19031878	+	KNOWN_PROTEIN_CODING	FBgn0034827			68.1	0	0	0	FBpp0073333	51.68	805	198	614	TQGAGGASTRRSHALKEVERLKENREKRRARQAEMKEEKVALMNQDPGNPNWETAQMIREYQSTLEFVPL--LDGQAVDDHQITVCVRKRPISRKEVNRKEIDVISVPRKDMLIVHEPRSKVDLTKFLENHKFRFDYAFNDTCDNAMVYKYTAKPLVKTIFEGGMATCFAYGQTGSGKTHTMGGEFNGKVQDCKNGIYAMAAKDVFVTLNMPRYRAMNLVVSASFFEIYSGKVFD-LLSDKQKLRVLEDGKQQVQVVGLTEKVVDGVEEVLKLIQHGNAARTSGQTSANSNSSRSHAVFQIVLRPQGSTKIHGKFSFIDLAGNERGVDTSSADRQTRMEGAEINKSLLALKECIRALGKQSAHLPFRVSKLTQVLRDSFI-GEKSKTCMIAMISPGLSSCEHTLNTLRYADRVKELVVKD	SQGGNNSNQRFSSVVREVNRMKEQREKRRARQAEQLQEKDALRRNNPGNPNWEVSVMLRQYRSTLIFSPLRCLDPNGGTVQQITVCVRKRPMSRKEENSKNLDIITVPSADSLIVHELRLKVDLTKFLEHHKFRFDYTFDEECSNALVYDHTARPLIRTMFEGGNATCFAYGQTGSGKTHTMGGEFFGKVQDCGTGIYAMAARDVFEEVSRPEYRQMGAKITCSFFEIYGTKVFDLLLPNKPMLRVLEDARQQVVVVGLTEMPVTKVEDVLRLIEHGSKERTSGQTSANAKSSRSHAVFQIALHFPDSWGPHGKCSFVDLAGNERGADTQSADRQTRIEGAEINKSLLALKECIRALSRQSSHLPFRGSKLTQVLRDSFVGGKKNKTCMIAMISPSMSCVENTLNTLRYADRVKELIAKE
retro_dmel_2	drosophila_melanogaster	FBgn0030268		2R	19011549	19013430	-	KNOWN_PROTEIN_CODING	FBgn0034824			61.93	0	0	0	FBpp0073333	53.54	805	184	615	SAGPAAQGVATAATTQGAGGASTRRSHALKEVERLKENREKRRARQAEMKEEKVALMNQDPGNPNWETAQMIREYQSTLEFVPLLDG---QAVDDHQITVCVRKRPISRKEVNRKEIDVISVPRKDMLIVHEPRSKVDLTKFLENHKFRFDYAFNDTCDNAMVYKYTAKPLVKTIFEGGMATCFAYGQTGSGKTHTMGGEFNGKVQDCKNGIYAMAAKDVFVTLNMPRYRAMNLVVSASFFEIYSGKVFDLLSD-KQKLRVLEDGKQQVQVVGLTEKVVDGVEEVLKLIQHGNAARTSGQTSANSNSSRSHAVFQIVLRPQGSTKIHGKFSFIDLAGNERGVDTSSADRQTRMEGAEINKSLLALKECIRALGKQSAHLPFRVSKLTQVLRDSFI-GEKSKTCMIAMISPGLSSCEHTLNTLRYADRVKELVVKDI	ATGSLSPVLATAPPRQQTA-PPVREDEVVHQAERMRKERERRREAQARTRLDREQGKNEDPGNPNWEVARMIRLQREQMESQRVRSGTTNERINCHQIMVCVRKRPLRRKELADREQDVVSIPSKHTLVVHEPRKHVNLVKFLENHSFRFDYVFDEECSNATVYEFTARPLIKHIFDGGMATCFAYGQTGSGKTYTMGGQFPGRHQSSMDGIYAMAAKDVFSTLKTVPYNKLNLKVYCSFFEIYGTRVFDLLMPGKPQLRVLEDRNQQVQVVGLTQNPVQNTAEVLDLLELGNSVRTSGHTSANSKSSRSHAVFQIVLRSAAGEKLHGKFSLIDLAGNERGADNSSADRQTRLEGSEINKSLLVLKECIRALGRQSSHLPFRGSKLTQVLRDSFIGGKKVKTCMIAMISPCLHSVEHTLNTLRYADRVKELSVESI
retro_dmel_3	drosophila_melanogaster	FBgn0262736		2L	10736375	10736957	-	KNOWN_PROTEIN_CODING	FBgn0032294			71.14	0	0	0	FBpp0085483	93.71	159	9	158	PIYGPFFGVMGAASAIIFSALGAAYGTAKSGTGIAAMSVMRPELIMKSIIPVVMAGIIAIYGLVVAVLIAGALEEPSKYSLYRGFIHLGAGLAVGFSGLAAGFAIGIVGDAGVRGTAQQPRLFVGMILILIFAEVLGLYGLIVAIYLYT	PPYSPFYGVMGVVFSSVLTSAGAAYGTAVSGTGIAATAVMRPELVMKSIIPVVMAGIIAIYGLVVSVLLSGELAPAPKYSLPTGYVHLAAGLSVGFAGLAAGYAVGEVGEVGVRHIALQPRLFIGMILILIFAEVLGLYGLIIGIYLYT
retro_dmel_4	drosophila_melanogaster	FBgn0036820		2R	17644995	17645346	+	KNOWN_PROTEIN_CODING	FBgn0034658			68.1	0	0	0	FBpp0300970	100	114	0	114	MGAVGSALRSPI--VDMSTKQAKFVENTIASNKVVIFSKTYCPYCTMAKEPFKKLNVDATIIELDGNPDGNEIQAVLGEITGARTVPRVFIDGKFIGGGTDIKRMFETGALQKYFQ	MGTVVSTLQRPTLYVSMDSSHAQFVRDTISGNKVVIFSKSYCPYCSMAKEQFRKINVKATVIELDQRDDGNEIQAVLGEMTGSRTVPRCFIDGKFVGGGTDVKRLYEQGILQKYFQ
retro_dmel_5	drosophila_melanogaster	FBgn0085190		2R	9916238	9916571	+	KNOWN_PROTEIN_CODING	FBgn0033893	FBgn0002643		51.61	0	0	0	FBpp0290228	74.4	125	31	124	QIFSCQFEVFGHVQGVFFRKHTQKKAIELGITGWCMNTTQGTVQGMLEGSLDQMTDMKYWLQHKGSPRSVIEKAVFSENEPLPINNFKMFSIR	QIFSCGFELFGRVQGVCLRKQTRDLATMNQVRGWVMNTDEGTVKGQLEGTLPKVNVLKFWLLNIGSPRSIIERAEFTPTKEITSHNFSRFSIR
retro_dmel_6	drosophila_melanogaster	FBgn0058045		3R	9543254	9543761	-	KNOWN_PROTEIN_CODING	FBgn0038175	FBgn0085412		83.13	0	0	0	FBpp0110481	98.81	168	0	166	MSELQSSLLLKKQLAELNKNPVEGFSAGLIDENDIFRWEVLIIGPPDTLYEGGFFKAHLYFPKEYPLRPPRMKFVTEIWHPNIEKNGDVCISILHEPGDDKWGYEKASERWLPVHTVETILISVISMLADPNDESPANVDAAKEWRESYTDFKRKVARCVRKSQEE	MSELQASLLLNRQLSELQRHPVEGFSAGLVSDSDIFKWEVVIIGPPDTLYEGGFFKAHLIFPKEYPLRPPKMKFITEIWHPNIDKAGDVCISILHEPGDDKWGYEKAEERWLPVHTVETILLSVISMLTDPNDESAANVDAAKEYRENYAEFKRKVTRCVRRSQEE
retro_dmel_7	drosophila_melanogaster	FBgn0261439		3L	11915835	11917791	-	KNOWN_PROTEIN_CODING	FBgn0036222			63.68	0	0	0	FBpp0085736	94.25	661	38	661	QASAANPDKISKQYPVVDHAYDAIVVGAGGAGLRAAFGLVAEGFRTAVITKLFPTRSHTIAAQGGINAALGNMEEDDWKWHMYDTVKGSDWLGDQDAIHYMTREAPKAVIELENYGMPFSRTQDGKIYQRAFGGQSLKFGKGGQAHRCCAVADRTGHSLLHTLYGQSLSYD--CNYFVEYFALDLIFEDGECRGVLALNLEDGTLHRFRAKNTVIATGGYGRAFFSCTSAHTCTGDGTAMVARQGLPSQDLEFVQFHPTGIYGAGCLITEGCRGEGGYLINGNGERFMERYAPVAKDLASRDVVSRSMTIEIMEGRGAGPEKDHVYLQLHHLPPKQLAERLPGISETAMIFAGVDVTREPIPVLPTVHYNMGGVPTNYRGQVITIDKDGKDVIVPGLYAAGEAASSSVHGANRLGANSLLDLVVFGRACAKTIAELNKPGAPAPTLKENAGEASVANLDKLRHANGQITTADLRLKMQKTMQHHAAVFRDGPILQDGVNKMKEIYKQFKDIKVVDRSLIWNSDLVETLELQNLLANAQMTIVSAEARKESRGAHAREDFKVREDEYDFSKPLDGQQKKPMDQHWRKHTLSWVCNDNGDITLDYRNVIDTTLDNEVSTVPPAIRSY	QVSCVRDASCKDEYSLIDHKFDAIVIGAGGAGMRAGFGLAEKGFQTAIISKLFPTRSHTVAAQGGVNAALSNMDKDDWKYHFYDTVKGSDWLGDQNAIHYMCREAERAVCELDMYGMPFSRKPDGKIYQRPFGGQTLDYGKGGVARRACACADRTGHALIHTLYGQTLKHSDSCHYFVDYFVLDLIMSQGACVGCLAWKLDDGTFHRFLAKNTVVAAGGCGRVYFSTTAGHTCTGDGNAWVSRQELPLMDMEFVQFHPTGIYGAGCLITEGVRGEGGFFLNCKGERFMERYAPKAKDLASRDVVARAMTMEVLAGNGCGPLKDHVHLQLHHIDAKIIKQRLPGIMVTARIFAKVDVTKEPVPVLPTVHYNMGGIPTDYKGRVVTIDENGKEQVVKGLYSCGETSCASVHGANRLGANSLLDLIIFGRVCALDIAANNCPGDKPPQVEDKATEKSLDNFKRLRCADGCIPTAVLRMELQRTMTKHAAVFREGKLLKEGLLKVAELCEQFKDIKTTDRTMVWNSNLVETLELQNMLANAVHIITAMENRKESRGSHAREDFKTRVDELDYGAPLAGQKKKPFEEHWRKHTMTFALGNKGCASIKYRPVVDTTLDSSVAPIPPAPRTY
retro_dmel_8	drosophila_melanogaster	FBgn0250874		3L	275337	276567	+	KNOWN_PROTEIN_CODING	FBgn0035124			63.24	0	0	0	FBpp0070474	74.77	428	106	426	LLAKLFPQTSPEVDSNAEQERKKREEEEE-KENERAWKRMKLGFAIFGGSAVAAGFWAVYEFGKPEVDPNGQPIEDEFTHKPLVQQYLQRMWKSIHYYQRMIQEPSRAKLLPDPLKPPYVQPRYTLVLEMKDVLVHPDWTYQTGWRFKKRPGVDHFLAECAKDFEIVVFTAEQGMTVFPILDALDPNGYIMYRLVRDATHFVDGHHVKNLDNLNRDLKKVIVVDWDANATKMHPDNTFGLARWHGNDDDGQLLDLIAFLKIIAQNNVDDVREVLHYYRQFDDPINQFRENQRKLAEQMLEAERIEQSKTKPMVKQWSRNIL	ILTKLFPQTSEESNDEESRERRKLEEEEEQKELERAFRRMKLGFGLFGIGSMLFSFWAIYFYGRPSLDEHGNEVIDEFSCLPQMQQLMWRTWKSVNRFQRFFKEPSRKKLLPDPLQPPYVQPPYTLVLEIKDVLVHPDWTYETGWRFKKRPGVDVFLKECAKYFEIVVYTAEQGVTVFPLVDALDPNGCIMYRLVRDSTHFDGGHHVKNLDNLNRDLKRVVVVDWDRNSTKFHPSNSFSIPRWSGNDNDTTLFELTSFLSVLGTSEIDDVREVLQYYNQFSDSLSQFRENQRKLGELMHAEEVEKTSKSRPVVKNWTRGFI
retro_dmel_9	drosophila_melanogaster	FBgn0000557		2R	7781079	7782471	+	KNOWN_PROTEIN_CODING	FBgn0000556			91.99	0	0	0	FBpp0085193	100	462	0	462	MGKEKIHINIVVIGHVDSGKSTTTGHLIYKCGGIDKRTIEKFEKEAQEMGKGSFKYAWVLDKLKAERERGITIDIALWKFETSKYYVTIIDAPGHRDFIKNMITGTSQADCAVLIVAAGTGEFEAGISKNGQTREHALLAFTLGVKQLIVGVNKMDSTEPPYSEARYEEIKKEVSSYIKKIGYNPASVAFVPISGWHGDNMLEPSEKMPWFKGWSVERKEGKAEGKCLIDALDAILPPQRPTDKPLRLPLQDVYKIGGIGTVPVGRVETGLLKPGMVVNFAPVNLVTEVKSVEMHHEALTEAMPGDNVGFNVKNVSVKELRRGYVAGDSKNNPPRGAADFTAQVIVLNHPGQIANGYTPVLDCHTAHIACKFSEIKEKCDRRTGKTTETEPKAIKSGDAAIIVLVPSKPLCVESFQEFPPLGRFAVRDMRQTVAVGVIKSVNFKETTSGKVTKAAEKAQKKK	MGKEKIHINIVVIGHVDSGKSTTTGHLIYKCGGIDKRTIEKFEKEAQEMGKGSFKYAWVLDKLKAERERGITIDIALWKFETAKYYVTIIDAPGHRDFIKNMITGTSQADCAVLIVAAGTGEFEAGISKNGQTREHALLAFTLGVKQLIVGVNKMDSSEPPYSEARYEEIKKEVSSYIKKIGYNPAAVAFVPISGWHGDNMLEPSTNMPWFKGWKVERKEGNADGKTLIDALDAILPPARPTDKALRLPLQDVYKIGGIGTVPVGRVETGVLKPGTVVVFAPANITTEVKSVEMHHEALQEAVPGDNVGFNVKNVSVKELRRGYVAGDSKANPPKGAADFTAQVIVLNHPGQIANGYTPVLDCHTAHIACKFAEIKEKVDRRSGKTTEENPKFIKSGDAAIVNLVPSKPLCVEAFQEFPPLGRFAVRDMRQTVAVGVIKAVNFKDASGGKVTKAAEKATKGK
retro_dmel_10	drosophila_melanogaster	FBgn0015024		3R	26882250	26883573	-	KNOWN_PROTEIN_CODING	FBgn0002413			66.21	0	0	0	FBpp0073513	86.94	337	12	305	EIIVGGKYRVIRKIGSGSFGDIYLGMSIQSGEEVAIKMESAHARHPQLLYEAKLYRILSGGVGFPRIRHHGKEKNFNTLVMDLLGPSLEDLFNFCTRHFTIKTVLMLVDQMIGRLEYIHLKCFIHRDIKPDNFLMGIGRHCNKLFLIDFGLAKKFRDPHTRHHIVYREDKNLTGTARYASINAHLGIEQSRRDDMESLGYVMMYFNRGVLPWQGMKANTKQQKYEKISEKKMSTPIEVLCKGSPAEFSMYLNYCRSLRFEEQPDYMYLRQLFRILFRTLNHQYDYIYDWTMLK	ELRVGNKYRLGRKIGSGSFGDIYLGTTINTGEEVAIKLECIRTKHPQLHIESKFYKTMQGGIGIPRIIWCGSEGDYNVMVMELLGPSLEDLFNFCSRRFSLKTVLLLADQMISRIDYIHSRDFIHRDIKPDNFLMGLGKKGNLVYIIDFGLAKKFRDARSLKHIPYRENKNLTGTARYASINTHLGIEQSRRDDLESLGYVLMYFNLGALPWQGLKAANKRQKYERISEKKLSTSIVVLCKGFPSEFVNYLNFCRQMHFDQRPDYCHLRKLFRNLFHRLGFTYDYVFDWNLLK
retro_dmel_11	drosophila_melanogaster	FBgn0004227		3R	12466049	12467942	+	KNOWN_PROTEIN_CODING	FBgn0015520			64.14	0	0	0	FBpp0100043	74.79	698	147	669	QNQANQNANKGQNQRQGQNQNQNQVHGQGNQGGPGNQGGAGNQGGQGNQGGAGNQGNGQGFRGRNAGNNQGGGFSGGPQNQQRDNRNRSGPR-PGGGAGGAMNSTNMGGGGG---GGGGGGPRGGEDFFITQRLRSISGPTFELEPVEVPTETKFSGRNRLYVGNLTNDITDDELREMFKPYGEISEIFSNLDKNFTFLKVDYHPNAEKAKRALDGSMRKGRQLRVRFAPNATILRVSNLTPFVSNELLYKSFEIFGPIERASITVDDRGKHMGEGIVEFAKKSSASACLRMCNEKCFFLTASLRPCLVDPMEVNDDTDGLPEKAFNKKMPDFNQERSIGPRFADPNSFEHEYGSRWKQLHNLFKTKQDALKRELKMEEDKLEAQMEYARYEQETELLRQELRKREVDNERKKLEWEMREKQAEEMRKREEETMRRHQTEMQSHMNRQEEDMLRRQQET-LFMKAQQLNSLLDQQEGFGGGGGGNNSTFDNFAGNSNSPFEVFRGNNNNNSTMIGNNAAPNTQVCPH	QKQINESPKPAAGNVPAKNNELSAGGGGQNQPNHSNKG-QGNQGDQGEQGNQGPNFRGRGGGPNQPNQNANQEQSNGYPGNQGDNKGGQGQRGAGGGKHQRGNRSRRSGGSGIMNSSMGGGGQRGEDFFIAQRLLDISGPTHELPPIELPTDNKFVGRNRLYVGNLTSDTTDDDLREMFKPYGEIGDIFSNPEKNFTFLRLDYYQNAEKAKRALDGSLRKGRVLRVRFAPNA-IVRVTNLNQFVSNELLHQSFEIFGPIERAVICVDDRGKHTGEGIVEFAKKSSASACLRLCNEKCFFLTASLRPCLVEPMEVNNDNDGLPDKTLNKKSLEFRHERSVGPRFACLNSFEHEYGSRWKQLHDLFKSKQDSLKRELKMEEDKLEAQMEYARYEQETELLRQELKKRELDNERMKLEWEMREKQAEEIRKREEEYMHRYQNQLLRH----EEDMRARQQENDLLMQAKKLNMILDQQEGFGG----SNSGFEHF----DSPFEVF-GNNSNNSTMAGPGGPDNSDGNQH
retro_dmel_12	drosophila_melanogaster	FBgn0033906		3R	21612419	21612944	-	KNOWN_PROTEIN_CODING	FBgn0039371			79.87	0	0	0	FBpp0291641	89.33	178	2	161	TQVKQFLNGYKDDVSKSLRDASKPWTKVFDTVEEKTGVDRVNIFVGAVGLCAIYLIFGWGAQLLCNIIGVLYPAYISIHAIESSTKQDDTKWLIYWVTFGIFTVIEFFSSLLTSVIPFYWLLKCAFLIWCMLPTEQNGSTIIYNKLVRPYFLKHHESVD	SQVQRFFNGYKQDINRSLRDASKPWTKAFDSLEEKTGVERVNIFVGSILFCAFYLVFGWCAQLLCNIIGVLYPAYISIHGIESSTKQDDIRWLIYWVTFGIFTVIEFYPSLLTSMIPFYWLLKCTFLIWCMLPTERNGSTLIYHKLVRPYFLKLHDPVD
retro_dmel_13	drosophila_melanogaster	FBgn0035400		3L	20499131	20500475	+	KNOWN_PROTEIN_CODING	FBgn0037005	FBgn0052425		60.67	0	0	0	FBpp0072977	79.71	488	23	412	SVFTSSGIGEPSVHHALVVIFLEFFAWGLLTMPIISTLNQTFPDHTFLMNGLVMGIKGILSFLSAPLIGALSDIWGRKFFLLVTVFFTCLPIPLMSINTWWFFAMISISGAFAVTFSVVFAYVADVTTPEERSKAYGLASATFAASLVISPALGNALMEMYGDTLVVALSTAIALLDVFFILVAVPESLSEKMRPASWGAPISWEQADPFLALRKVGTDKTVLMLCLTVLLSYLPEAGEYSCMFVYLKLKMGFNYVEVSVFIAIVGILSITVQVTLGSFMQVFGAKRTIIMGLALEIVQLLWYGFGSQKWMMWSAGVVAALGSITYPAISAFVSLYAAPESQGAVQGMITGMRGLCNGLGPAVFGVVFYLFNVDLNDDHDSHAKSSGSR	SLASTSGIGKPSVGHILVVVFLEYFAWGLLTMPMIATLKETFPDHTFLMNGLVMGVKGILSFLSSPLIGALSDIYGRKVLLLITVIFTSLPIPMMTMDNWWFFVISSISGVLGVSFSVAFAYVADVTTKEERSRSYELVSATFAASLVIAPAMGNLIMDRYGINTVVLVATLVSTTNVMFVLLAVPETLQQNVRSTG----LSWKQADPFLSLRRVGSDPNVLLLCVVMFTFLLPEAGEYSSVPAYLKLTMGFDFTELSTLVAFMAILGISINVTLGSIVKTLGAKNAIILGLLLELLQLILFAIGYEKWQMWLAGNVAALSSITFPAVSAYVSLYTDVETQGAVQGMITGMSGLCSGLGPALFGIVFYLSDMDLDKNRILIGSVSGDR
retro_dmel_14	drosophila_melanogaster	FBgn0013305		3R	9978686	9979481	-	KNOWN_PROTEIN_CODING	FBgn0038209			55.56	0	0	0	FBpp0301213	74.76	313	77	311	YGAYDDPESQPKNFSFDDQSIRRGFIRKVYLILMGQLIVTFGAVALFVYHEGTKTFARNNMWLFWVALGVMLVTMLSMACCESVRRQTPTNFIFLGLFTAAQSFLMGVSATKYAPKEVLMAVGITAAVCLALTIFALQTKYDFTMMGGILIACMVVFLIFGIVAIFVKGKIITLVYASIGALLFSVYLIYDTQLMMGGEHKYSISPEEYIFAALNLYLDIINIFMYILTIIGAS	YGSEIGQDDPDKGLGFCSASIRRGFIRKVYLILLAQLITSLVVIVSLTADKRVRLMVAESTWIFVVAILIVVFSLVALGCNEDLRRQTPANFIFLSAFTIAESFLLGVAACRYAPMEIFMAVLITASVCLGLTLFALQTRYDFTVMGGLLVSCLIILLFFGIVTIFVGGHMVTTIYASLSALLFSVYLVYDTQLMMGGKHRYSISPEEYIFAALNIYMDVMNIFLDILQLIGGS
retro_dmel_15	drosophila_melanogaster	FBgn0031881		2L	2768644	2769565	-	KNOWN_PROTEIN_CODING	FBgn0019830			62.76	0	0	0	FBpp0079017	96.66	299	5	294	ISTEKKSNPVKSFIAGGVGGMCNVLVGHPLDTIKVRLQTMPTPPPGQPPRYKGVIDCAARTFRYEGFRGFYRGISAPLVGVTPIYAVDFAVYAAGKRLFQTDDHIRLTYPQIFAAGALAGVCSALVTVPTDRIKVLLQTQTVSNGPLLYNGTIDTAAKLYRQGGIRSLFKGTCACILRDSP-TGFYFVTYEFLQELARKKSANGKISTTSTILSGGTAGIVFWTLAVPFDVLKSRLQSAPEGTYKHGIRSVFRNLMATEGPKALFRGILPILLRAFPSTAAVFFGVELTN	VSTERKANPVKSFLTGGFGGICNVLSGHPLDTIKVRLQTMPRPAPGEQPLYRGTFDCAAKTIKNEGVRGLYKGMSAPLTGVAPIFAMCFAGYALGKRLQQRGEDAKLTYPQIFVAGSFSGLFSTLIMAPGERIKVLLQTQQGQGGERKYNGMIDCAGKLYKEGGLRSVFKGSCATMLRDLPANGLYFLVYEALQDVAKSKSETGQISTASTIFAGGVAGMAYWILGMPADVLKSRLQSAPEGTYKHGIRSVFKDLIVKDGPLALYRGVTPIMLRAFPANAACFFGIELAN
retro_dmel_16	drosophila_melanogaster	FBgn0037440		3R	12964828	12966760	+	KNOWN_PROTEIN_CODING	FBgn0038486			74.64	0	0	0	FBpp0081231	95.32	662	24	655	MKFRGNGKLLWNLTKNSLAQQSPNGIAKKVLPASSYSTVQKTIPLEQPNLLKYHVLPLEETLNRFMTTVEPLLTPEEFQRQKGITSEFLKKQGRELQLLLEETGSKEKNWLAHRWLKAAYLTYRDPVTVFVSPGMTFPKQNFRDSRAFVDYTARVIYGLGEFNDMVHANKIPIVKMGKNELDNSQFGKVFGTCRIPRRGTDEIVYNPDSDYVVVIYKNHFYQLKIYSKEGKLIAAPCLAAQLENIVLKETQVGVPYGILTTDSRDNWAEAYEYLVETPGNRDALKTIQGALFTVSLDEGTILKEGEETDELILSLIHGSGSKINSGNRWMDKTIQLVVNPNGNVGFTYEHSPAEGQPIAMMMDYVVQKMKEDPSFGQSGSQDFAPAQKIQFSSSNKSLEKSLNVAQENVDKLADALQMKVLKFNGFGKDFIKKQRLGPDSFVQMALQLAFYKMHSEPPAQYESAHLRIFDGGRTETIRSCSNESLAFSRAMQDPNVTDQERAAKLREAVVSHQTYAKLALQGKGVDRHLLGLKLMALEHSKPIPEFFKSPGFVKSSHFRMSTSQVATKYDAFMGYGPATDDGYACCYNPRDNDIILAISAWRHCPITDHLKFVKTLEQSFFEMKNVLEKNP	MKFRDNGKVLWNFARISALQQTRYTFGKK-MPIASYSTAKDKPKSDQPNLLKYHVLPLEEILNRFMITVQPLLTPEEFKKQEKITNEFQRKEGAKLQKLLEETGEQEKNWLAHRWLKVAYLQFRSPVTCFSSPGMTFPKQKFESVHEFVDYTSRVIFGLGEFNDLVHAKKIPIVKMGKNELDNSQFGKVFGTCRIPRRFTDDIVYNPCSDYVVVIYRNHFYQLKIYDKEGKLIIAPCLAVQLEEIMAKEKEPGVPYGILTTDSRDNWAEAYEHLSNTPRNRVALKTIQNAMFTVSLDECTSPKEGRDAEELILTLIHGKGSKCNSANRWMDKTIQLVVNPNGHVGFTYEHSPAEGQPIAMMMDYVVKKMKDDPSYGECGSENFIPAKKIKFCDVSKCVEQWLIIAQKNVDKLVQDLQMKVLKFDCYGKDFIKKQRLGPDSFVQMALQLAFFKLHYEPAAQYESAHLRIFDGGRTETIRSCSNESLAFCHAMDDVSASAQERASKIREAVMCHQMYAKLALLGKGVDRHLFGLKLMAVENCLPVPEFFSSPGYVKSTHFRMSTSQVATKYDAFMGYGPSVEDGYACCYNPREHDIILAISAWRHCQATDHQKIAKALAQSFAEMKDVLETCP
retro_dmel_17	drosophila_melanogaster	FBgn0025790		3L	15465721	15466678	-	KNOWN_PROTEIN_CODING	FBgn0036496			73.4	0	0	0	FBpp0088568	58.38	531	0	310	MDFVQVSEEEGDEPIELPAEEDGTLLLSTLQAQFPGSCGLKYRNLDTKAVRGVRSNEGRLFPPSVESGWGEYAYFCVFPKENKRKSDDNLENSTAKTKRIETRLRCTDLIVLGLPWKTTEESLREYFETYGEVLMAQIKKDTKSGQSKGFGFVRFGSYDAQMRVLTNRHLIDGRWCEVKVPNSKGMGHQVPCKVFVGRCTEDINSDDLREYFSKFGEVTDVFIPRPFRAFSFVTFLDPDVAQSLCGEDHIIKGVSVHVSNAAPKAEQNRNQQVQSYNYNSA-NSFGMHSYHPQGN-HMNPGRNGHHRGNNQH	MVFVHVSEKEGDEPIELPAEEDGTLLLSTLQAQFPESSGLQYRNVDTKAVRGVRSNEGRLYSPSEETGWGEYHYFCVFPKKNKRQSEDNLENSTAKTKRTEAHLRCFDLIVLGLSYNTTEQDLREYFETYGDVVKAEIKKDTRSGHSKGFGFVRFGSYDVQMHVLSKRHSIDGRWCEVKVPASRGMGNQEPGKVFVGRCTEDIEADDLREYFSKFGEVIDVFIPKPFRAFSFVTFLDPYVPRVVCGEKHIIKGVSVHVSTADKKNVQNKNQLFQTNNYNNLDNNFKM---QPANNFRMHPANNFSMHSFNPH
retro_dmel_18	drosophila_melanogaster	FBgn0029067		2R	4588251	4589133	-	KNOWN_PROTEIN_CODING	FBgn0033322			55.63	0	0	0	FBpp0076921	61.73	243	90	240	DFTVKVTID-RNPVRFFVHKRPHVDYFLDVVSQWYDLVVFTASMEIYGAAVADKLDNGRNILRRRYYRQHCTPDYGSYTKDLSAICSDLNRIFIIDNSPGAYRCFPNNAIPIKSWFSDPMDTALLSLLPMLDALRFTNDVRSVLSRNLHLH	DYVLNISIDGMEPIVFRVFKRPHVDEFLDFVSKWYDLVIYTASLEVYAAQVVDHLDAGRGLITRRFYRQHCRASSPMVSKDLTLVTPDMSGVLIIDNSPYAYRDFPDNAIPIKTFIYDPDDTELLKMLPFLDALRFTKDVRSILGRRVIRH
retro_dmel_19	drosophila_melanogaster	FBgn0025806		3L	1860656	1861211	-	KNOWN_PROTEIN_CODING	FBgn0004636			57.14	0	0	0	FBpp0072086	95.6	182	0	174	MREFKVVVLGSGGVGKSALTVQFVSGCFIEKYDPTIEDFYRKEIEVDSSPCVLEILDTAGTEQFASMRDLYIKNGHGFIVMYSLTNHQTFQDISSMKNVITRVKGSQPAPILLVANKFDLDCQREVSTAEGNALAQLWDCPFIEASAKDRINVNEVFATIVREMN-LTQENRQKK	MREYKIVVLGSGGVGKSALTVQFVQCIFVEKYDPTIEDSYRKQVEVDGQQCMLEILDTAGTEQFTAMRDLYMKNGQGFVLVYSITAQSTFNDLQDLREQILRVKDTDDVPMVLVGNKCDLEEERVVGKELGKNLATQFNCAFMETSAKAKVNVNDIFYDLVRQINKKSPEKKQKK
retro_dmel_20	drosophila_melanogaster	FBgn0037402		2R	11567112	11567487	-	KNOWN_PROTEIN_CODING	FBgn0262512			57.85	0	0	0	FBpp0301285	97.58	124	0	121	MSSHTEDLGRLLAVIGDEDTCVGFLLGGIGEVDEDRETNFMVVERDTTPKQIEECFKKFLRRPDIVIILINQVYADMIRPTVDAHNLAVPTVLEIPSKQHPYDSSRDSILKRAQRVITPPE	MALHSAIKGKLISVIGDEDTCVGFLLGGVGEINKNRHPNFMVVDKNTAVSELEDCFKRFLKRDDIDIILINQNCAELIRHVIDAHTSPVPAVLEIPSKDHPYDASKDSILRRARGMFNPED
retro_dmel_21	drosophila_melanogaster	FBgn0003134		2L	3109719	3110730	+	KNOWN_PROTEIN_CODING	FBgn0005779	FBgn0015600		59.93	0	0	0	FBpp0084026	92.35	327	4	306	MNIDSIISRLLEVRGARPGKNVQLSESEIRSLCLKSREIFLSQPILLELEAPLKICGDIHGQYYDLLRLFEYGGFPPESNYLFLGDYVDRGKQSLETICLLLAYKIKYAENFFLLRGNHECASINRIYGFYDECKRRYTIKLWKTFTDCFNCLPVAAIVDEKIFCCHGGLSPDLSSMEQIRRIMRPTDVPDQGLLCDLLWSDPDKDTMGWGENDRGVSFTFGAEVVGKFLQKHEFDLICRAHQVVEDGYEFFAKRQLVTLFSAPNYCGEFDNAGAMMSVDDTLMCSFQILKPADKRRFVYPN	LNLNDLLNKLMSFRRSKM-QRLPLLESEVNLLCTLARELFLDEPMLLNVPAPIRVVGDIHGQFYDLLKILDQCGYPPQTRYLFLGDYVDRGKNSVETITLLLALRVKFPKHIYLLRGNHESQSVNRVYGFFDECKRRYTVKLWKTFVDCYNCMPVAAIISHRIFCCHGGLSPQLKELSNIESIARPTEVPETGLLCDLLWSDPDRYGFGWTSSDRGVSYLYGRDVLEKFLQKNDFDLVCRAHQVVEDGYEFFAKRQLVTVFSAPNYCGLYDNAGASMGVDKDLVISFDIQR-GDIRRIVVRN
retro_dmel_22	drosophila_melanogaster	FBgn0030733		3R	24119855	24120191	+	KNOWN_PROTEIN_CODING	FBgn0039576			85.59	0	0	0	FBpp0073995	100	111	0	111	MSNYIARKGPAVLSNLGRWAYNLSGFNQYGLHRDDCLYENEDVKEAVRRLPRKLYDERNYRIMRALHLSMTKTILPKEQWTKYEEDVKYLEPYLKEVVKEREEREDWEKIH	MSKYVARVGPAVFSKLGKWAYNMSGFNQYGLYRDDCLYENEDVAEAVRRLPRKLYDERNYRILRALHLSMTKTILPKEQWTKYEEDIKYLEPYLNEVQKEREEREEWSKTH
retro_dmel_23	drosophila_melanogaster	FBgn0052672		3R	13550269	13550632	-	KNOWN_PROTEIN_CODING	FBgn0038539			82.76	0	0	0	FBpp0071427	95.87	121	0	116	MKFQYKEEHAFEKRRAEGDKIRRKYPDRVPVIVEKAPKARIGDLDKKKYLVPSDLTVGQFYFLIRKRIHLRPEDALFFFVNNVIPPTSATMGSLYQEHHEEDYFLYIAYSDENVYG	MNYQYKKDHSFDKRRNEGDKIRRKYPDRVPVIVEKAPKTRYAELDKKKYLVPADLTVGQFYFLIRKRINLRPDDALFFFVNNVIPPTSATMGALYQEHFDKDYFLYISYTDENVYG
retro_dmel_24	drosophila_melanogaster	FBgn0030823		3L	4648671	4650135	+	KNOWN_PROTEIN_CODING	FBgn0052238	FBgn0262870		59.81	0	0	0	FBpp0074177	82.66	496	55	465	IYYSTDWDKSALVSNFQKRGWLQVPSFNGEWNFYWACTQNCRYIFGIDHPYRMRSDQVINHFPNSIELSRKDLLIKNIKRYRKDLERRGDPLAQSHPPDTKLGIGGTRYKHLDIIPMTFVLPSDYQMFVEVFHRNPASTWIVKPCSKSQGVGIYLVNKLSKLKKFAYDAR-TFYPQINRDTCVISKYIDNPLLIGGKKFDLRLFVLVTTFNPLKAYLYKEGFCRFCTEKYDE--TEIDNVFMHLTNVSIQKTNQEYNSIHGGKWPLQNLWLYLDSLRGEGVSDMLWSRITATIRHSLDAVAPVMANDRHCFEVYGYDIIIDNNLKPWLIEINTSPSMHSTTTNDRMLKSRLIDNVLDVVVPPNCMPNEHWDKTPNPELLKNFTVLMPISPCKPKEQVPVRRKGRLSKKKKSKS	IGFCTDLDKSVLVNNFEKRGWHQVNG-DDDWHFYWAGVQTCRNIFSVDSGYRMHDNQMINHFPNHYELSRKDLLVKNIKRYRKDLERDGNPLAEKTESNNS---SGTRYLYLDFVPTTFVLPADYNMFVEEYRKFPLSTWIMKPCGKSQGAGIFLINKLSKLKKWSREAKGPFHPQIAKESYVISRYIDNPLLIGGKKFDLRLYVLVASFRPLKAYLFKQGFCRFCTVKYDTSVTELDNMYVHLTNVSVQKHGGEYNTLHGGKWSVQNLALYLEGTRGKEVTDRLFGAISWLIVHSLRAVAPVMASDRHCFECYGYDIIIDNALKPWLVEVNASPSLTSTTVNDRILKYKLIDNILSVVLPPDGVPDVRWNKVPSADALGNFELLIDEELAAQDEQHQNSSSNTHSKTSKMGS
retro_dmel_25	drosophila_melanogaster	FBgn0017418		3L	10406136	10407672	+	KNOWN_PROTEIN_CODING	FBgn0036082			66.04	0	0	0	FBpp0297199	73.76	503	132	503	CEICFSQLPPDSMAGLECGHRFCMPCWHEYLSTKIVAEGLGQTISCAAHGCDILVDDVTVANLVTDARVRVKYQQLITNSFVECNQLLRWCPSVDCTYAVKVPYAEPRRVHCKCGHVFCFACGENWHDPVKCRWLKKWIKKCDDDSETSNWIAANTKECPRCSVTIEKDGGCNHMVCKNQNCKNEFCWVCLGSWEPHGSSWYNCNRYDEDEAKTARDAQEKLRSSLARYLHYYNRYMNHMQSMKFENKLYASVKQKMEEMQQHNMSWIEVQFLKKAVDILCQCRQTLMYTYVFAYYLKKNNQSMIFEDNQKDLESATEMLSEYLERDITSENLADIKQKVQDKYRYCEKRCSVLLKHVHEGYDKEWWEYTE	CGICFCSC--DELIGLGCGHNFCAACWKQYLANKTCSEGLANTIKCPAANCEILVDYISFLKLADDSEVVERYQQLITNTFVECNMLMRWCPAPNCSHAVKAVCAEPRAVLCKCGHEFCFACGENWHEPASCSSLKKWVKKCLEDSETSNWIAQNTKECPKCNVTIEKDGGCNHMVCKNPSCRYDFCWVCLGSWEPHGSSWYSCNRFDEEEAKQARLAQQKYRSSMARYLHYYNRYSNHMQSLKMENKLYSNIQAKMDDMQEE-MSWIEVQFLRDAVDVLCQCRTTLMYSYVFAFYLMNNNQKIIFEDNQKDMEMATEKLSECLEREITVKNIYEVKQKVLDLSHYCQKRRHVLLCHVREGYENDWWEFKE
retro_dmel_26	drosophila_melanogaster	FBgn0033408		2L	15979571	15980120	+	KNOWN_PROTEIN_CODING	FBgn0028858			56.35	0	0	0	FBpp0087638	96.28	188	0	181	MSKATTIKEALKRWEEREQQNSLTAKVIDLQFQWPPIEKMDSTLGTLVQCERISMSTNMIEKIFGLSGMKCLKVLSLSRNYIKQISGLEAVAETLEELWLSYNLIEKIKGLTGLKCLKVLYISNNLIKDWSEFNRLAEIESLEDLVVVGNPLSEGLDEPTWRAECIKRLPTIRKLDGEPVV	MSKPTTLKDALAKWEDRNKQPAATATEIGLQFQYPPIEKMDPILNSLTECQKLSLSSNMIEKITGISGMKNLKVLSLARNNLKTLNGIEPLADTLEELWVSYNNIEKTKPLESMKALRVFYISFNMIKDWTEFMRMGVPPNLSEITFVGNPLNENMDQSAFTAEAVRRLPNMKKLDGEPVI
retro_dmel_27	drosophila_melanogaster	FBgn0031145		2L	18454766	18455159	+	KNOWN_PROTEIN_CODING	FBgn0032680			87.69	0	0	0	FBpp0305904	100	130	0	130	MSLNPQYEDIGKGFVQQYYAIFDDPANRANVVNFYSATDSFMTFEGHQIQGAPKILEKVQSLSFQKITRVITTVDSQPTFDGGVLINVLGRLQCDDDPPHAFSQVFFLKANAGTFFVAHDIFRLNIHNSA	MSLNLQYEDIGKEFVQQYYAIFDDPANRENVINFYNATDSFMTFEGNQIQGAPKILEKVQSLSFQKIARVITTVDSQPTSDGGVLIIVLGRLKCDDDPPHAFSQIFLLKPNGGSLFVAHDIFRLNIHNSA
retro_dmel_28	drosophila_melanogaster	FBgn0011288		3R	5587932	5588571	-	KNOWN_PROTEIN_CODING	FBgn0028401			71.92	0	0	0	FBpp0110435	93.87	212	13	212	PKTELEELQINAQGVADESLESTRRMLALCEESKEAGIRTLVALDDQGEQLDRIEEGMDQINADMREAEKNLSGMEKCCGICVLPCNKSQSFKEDDGTWKGNDDGKVVNNQPQRVMDDRN----GMMAQAGYIGRITNDAREDEMEENMGQVNTMIGNLRNMALDMGSELENQNRQIDRINRKGESNEARIAVANQRAHQLLK	PRTELQELQFKSGQVADESLESTRRMLALMDESKEAGIRTLVALDDQGEQLDRIEEGMDRINADMREAEKNLSGMEKCCGICVLPWKKVNIKDDGESAWKANDDGKIVASQPQRVIDERERGGMGAPPQSGYVARITNDAREDEMDENLGQVNSMLGNLRNMALDMGSELENQNKQVDRINAKGDANNIRMDGVNKRANNLLK
retro_dmel_29	drosophila_melanogaster	FBgn0024315		X	4678230	4679670	+	KNOWN_PROTEIN_CODING	FBgn0029727			61.62	0	0	0	FBpp0086260	76.74	516	83	479	QDGEFAWSSALQGYILSSFFYGYVITQIPFGILAKKYGSLRFLGYGMLINSVFAFLVPVAARGGGVWGLCAVRFIQGLGEGPIVPCTHAMLAKWIPPNERSRMGAAVYAGAQFGTIISMPLSGLLAEYGFDGGWPSIFYVFGIVGTVWSIAFLIFVHEDPSSHPTIDEREKKYINDSLWGTDVVKSPPIPFKAIIKSLPFYAILFAHMGHNYGYETLMTELPTYMKQVLRFSLKSNGLLSSLPYLAMWLFSMFISVVADWMISSKRFSHTATRKLINSIGQYGPGVALIAASYTGCDRALTLAILTIGVGLNGGIYSGFKINHLDLTPRFAGFLMSITNCSANLAGLLAPIAAGHLISDPSKPMMGQWQIVFFIAAFVYIICGTFYNIFGSGERQY	RDGDFEWSYKLQGYILSSFFYGYVITQIPFGLMIKYYGARHFLGWGMMINSLAAFFIPISARSGGVVGLCVVRFIQGLGEGPIVPCSHSLLAQWVPPNERSLAGAAVYAGAQFGTIVSMPLSGLLAHYGFDGGWPSIFYIFGLFSTIWCIIFICLVQESPAVSTRISEAERRHIMEAIWQAQPEERSRIPFLGIAKSPPFYAILVAHAGHNYGYETLMTMLPTYMYRVLNVNIRTNGIISSLPYLAMWILAIVFGILADCLI-RRNFSITVVRKLMNSLGQYGPAVALISVGFVHHSLWLTSVIFILGMGLNGAIYCGFKINHLDLSPRFAGLLISVTNCVANLVGLMAPMVAGHVI-DP-KPSVENWRIVFYIAAGVFIFTASFYNVFASGKQQW
retro_dmel_30	drosophila_melanogaster	FBgn0033551		X	19425102	19425654	-	KNOWN_PROTEIN_CODING	FBgn0031026			50.33	0	0	0	FBpp0087318	74.15	205	23	175	GNEELLPSNMGTREPVILNVYDMYWINEYTTSIGLGVFHSGVEAFGTEFAYGGHPFPFTGVFEISP-RDHDELGDQFQFRQSIQIGCTDFTYEEVRRIVEELGNQFRGDRYHLMNNNCNHFSGSLTQILCGQEIPSWVNRLAHFSSCVPFLQR	GDREISTEDIEQREPVMLNIYDLSTSNNYTFPLGLGVFHSGVQLYGREYAFLALNLSISGIFEIHPCNGQEELGEHFRFRKSILLGYTDFTCAEVKRVINLLGFEFRGTSYHLTSKNCNHFSNCLAHLVCGRKIPRWVNRLAYLITCVPFLER
retro_dmel_31	drosophila_melanogaster	FBgn0033603		2L	10693031	10694060	-	KNOWN_PROTEIN_CODING	FBgn0032285			51.06	0	0	0	FBpp0291859	54.24	601	245	571	GAGGGGGGGSGYGGGSGFGGGGAGGGSGGGGGGAGGGGGYGSGGGSGRGGAPGGPGAPGGGGFGGQGGGGGYGGAGGGAGRGGSPGGPGSPGGGGFGGQGGAGGGYGGGGGGGRGGGGAPGAPGSPGGGGFGGQGGGGGFGGGGGRGGAPGAPGSPGGGG--YGGQGGAGGGYGGGGGRGGGGAPGAPGAPGSPGGGGFGGQGGGGGFGGGGGRGGAPGAPGGGGGYG-GGAGRGGAPGAPGSPGGGGFGGQGGGGGFGAGGGRGGAGGAPGGPGSPGGPGYGGGAGGPGGAGGRPGGPGLPGNQYVPPAAGGGAPGSPGRPGSGGVPG	GYGGGGGGGGGGHAGASASSSASAGAIGGGDGGGKLGGGYGSGGHGSGGLGSGGFGSGGDLGLGGGGVGGG-PFAGGHAGGGVISGGGHSGGGGGFG--GGPGFGSGGHSGGGIGDGPGFGSGGYSGGGG-GIGGGGGHSGGGSGIGGGPGFGGGIGGGGGHSGGGGGIGGGPGFGGGIGGSGS-SASSSVGVIGGGHGGGGHGGGGFGPGGGGGGGFGPGGGGFGPGIGGGGGGFGPGIGGGSGGGHFGGGLSHKHKGHGGGGGFKGGYGGGGGGGGGGGGGYGIGPAVSLGGGPGGGGSYGGGY---GGGSGASASASASASAGAGG
retro_dmel_32	drosophila_melanogaster	FBgn0015024		X	12267277	12268312	+	KNOWN_PROTEIN_CODING	FBgn0030384			56.68	0	0	0	FBpp0073513	99.11	337	3	337	MRILKESRPEIIVGGKYRVIRKIGSGSFGDIYLGMSIQSGEEVAIKMESAHARHPQLLYEAKLYRILSGGVGFPRIRHHGKEKNFNTLVMDLLGPSLEDLFNFCTRHFTIKTVLMLVDQMIGRLEYIHLKCFIHRDIKPDNFLMGIGRHCNKLFLIDFGLAKKFRDPHTRHHIVYREDKNLTGTARYASINAHLGIEQSRRDDMESLGYVMMYFNRGVLPWQGMKANTKQQKYEKISEKKMSTPIEVLCKGSPAEFSMYLNYCRSLRFEEQPDYMYLRQLFRILFRTLNHQYDYIYDWTMLKQKTHQGQPNPAI---LLEQLDKDKEKQNGKPLIAD	MERLRSSQNREVRIGNYKVVRKIGCGSFGDIYLGIYIHSGERVAIKVESSKVRHPQLNYERRIYRALRPAHGLPRIRYFHKEEHYQAMVMDLLGPSLERLFQFCERAFTIKTVLLLAEQMLRRVEYVHNRGFLHRDIKPDNFLMGLGTMSKQVYLIDFGLSKKYLDITTGVHIPYREERSLTGTARYASIGAHAGVESARRDDMVAVGYVLMYFNRGSLPWQDLKASTKQQKYERIHEKKISVSIEVLCEGFPCEFTMYLNYCRGMGFYDKPNYDFICRMFRMLRNGLNLRPGLIYDWDMLMMKFHNTQKNPGIGMRVFPPKQKEDDGISGEPIIKD
retro_dmel_33	drosophila_melanogaster	FBgn0015622		X	12070927	12072640	-	KNOWN_PROTEIN_CODING	FBgn0030377	FBgn0259240		81.54	0	0	0	FBpp0084803	53.72	605	0	325	MAWKMGGNRAATLALLFASSLLLLSAANAADLDTESDDFEDGYVEDVQEEPAVIGGDEKLAYESPVIDAKKFHFADHFDDVEESRKRWVLSQAKKDDIAEEISKYDGIWNWESPQRIVWANDLGLVLKSKAKHAAIAAPLRKPFEFKSDKPLVVQYEVTLQEGQECGGSYLKLLSAGKDTEQLKAFNDKTPYTIMFGPDKCGNDVKMHFIFRHVNPINGTITEKHCNKPKNRLEEPFKDKLPHLYQLVVRPDNSFEIRVDHKIINEGSLLTDFKPPVNPPAEIDDPNDHKPESWDEREKIPDPTAHKPEDWDEDAPPQLPDTDAV	MAWKIGGNQYATLSMLFASSLLLLSAVKAIDSDLEWDDFEDVDVEDVQQEDV----DEKPTYKSPVIDAKKFHFADHFDDMEASTRRWVLSQAKKDDIADEISKYDGIWNWEPPQRMVWANDLGLVLKSKAKHAAIAAHLHQPFDFKSEKPLVVQYEITIQKGQECGGSYLKLLSAGKETEQLQTFNDKTPYTIMFGPDKCGKDVTIHFIFKHVNPINGTITEKHCNKPNNSFEEPFKDKLPHLYQLVVRPDNSFEIRIDHKIIKEGSLLTDFKPPVNPPAEIDDPNDHKPDSWDEREKIPDPTVHKPEDWDENETLKLPDADMI
retro_dmel_34	drosophila_melanogaster	FBgn0051715		X	18976837	18977212	-	KNOWN_PROTEIN_CODING	FBgn0030982			61.74	0	0	0	FBpp0079586	95.04	121	6	121	EDIIWTIKNGEFDAVQDAFQNDAQKVNEEIKGRFPVHYAADFGQLNVLEFLISLGADINRKDKHGITPILAAIWEGHTSCVELLLKMGADKNGSTPDGQSYLEAAEKDEIKKLLA	EDIIWTIKNGVYDEVERIFLAGSLNVNDQMGVRFPLHYAADFGQLKLLEFFVRIGAEVDRKDKYGITPLLAAIWEGHTRCVEFLLRMGASRTERTPEGQSYAEAAEQEDIRRLLA
retro_dmel_35	drosophila_melanogaster	FBgn0011710		2R	4125561	4127181	+	KNOWN_PROTEIN_CODING	FBgn0013726			59.12	0	0	0	FBpp0076897	81.72	361	9	304	IETPGYVGFANLPNQVHRKSVKKGFEFTLMVVGESGLGKSTLVNSLFLTDLYPERIIPDAIEKQKQTVKLEASTVEIEERGVKLRLTVVDTPGFGDAIDNSNSFGAILEYIDEQYERFLRDESGLNRRNIVDNRIHCCFYFISPFGHGLKPLDVEFMKKLHSKVNIVPVIAKADCLTKKEILRLKCRIMQEIESHGIKIYPLPDCDSDEDEDYKEQVKQLKEAVPFAVCGANTLLEVKGKKVRGRLYPWGVVEVENPDHCDFIKLRTMLI-THMQDLQEVTQEVHYENYRSDRLAK	MEIAGYVGFANLPNQVYRKAVKRGFEFTLMVVGASGLGKSTLINSMFLSDIYNAEQYPGPSLRKKKTVAVEATKVMLKENGVNLTLTVVDTPGFGDAVDNSNCWVPILEYVDSKYEEYLTAESRVYRKTISDSRVHCCLYFIAPSGHGLLPLDIACMQSLSDKVNLVPVIAKADTMTPDEVHLFKKQILNEIAQHKIKIYDFPATLEDAAEEAK-TTQNLRSRVPFAVVGANTIIEQDGKKVRGRRYPWGLVEVENLTHCDFIALRNMVIRTHLQDLKDVTNNVHYENYRCRKLSE
retro_dmel_36	drosophila_melanogaster	FBgn0016700		2L	7031433	7032105	-	KNOWN_PROTEIN_CODING	FBgn0031882			51.2	0	0	0	FBpp0083503	80.98	205	6	172	EYDYLFKLLLIGDSGVGKSCLLLRFADDTYTESYISTIGVDFKIRTIELDGKTIKLQIWDTAGQERFRTITSSYYRGAHGIIVVYDCTDQESFNNVKQWLEEIERYACENVNKLLVGNKSDLTTKKVVDHTTAAEYAAQLGIPFLETSAKSATNVEQAFMTMAAEI	DYKFLFKIVLVGNAGVGKTCLVRRFTQGLFPPGQGATIGVDFMIKTVEVEGEKIKLQIWDTAGQERFRSITQSYYRSAHALILVYDISCQPTFDCLPDWLREIQEYANSKVLKILVGNKTDRDDREIPTQI-GEEFAKQHDMYFLETSAKEAENVERLFYEIAAEL
retro_dmel_37	drosophila_melanogaster	FBgn0003134		2R	13843048	13843993	-	KNOWN_PROTEIN_CODING	FBgn0003140			62.96	0	0	0	FBpp0084026	90.83	327	6	303	IDSIISRLLEVRGARPGKNVQLSESEIRSLCLKSREIFLSQPILLELEAPLKICGDIHGQYYDLLRLFEYGGFPPESNYLFLGDYVDRGKQSLETICLLLAYKIKYAENFFLLRGNHECASINRIYGFYDECKRRYTIKLWKTFTDCFNCLPVAAIVDEKIFCCHGGLSPDLSSMEQIRRIMRPTDVPDQGLLCDLLWSDPDKDTMGWGENDRGVSFTFGAEVVGKFLQKHEFDLICRAHQVVEDGYEFFAKRQLVTLFSAPNYCGEFDNAGAMMSVDDTLMCSFQILKPADKRRFV	IDCIIKELTSLN----GSECTLKEELIERLIQQTREVIKWQPMLLELQAPVNICGDIHGQFTDLLRIFKACGFPPKANYLFLGDYVDRGKQSLETICLLFAYKVKYPLNFFLLRGNHESASINKIYGFYDEIKRRHTVRLWHSFTDCFNWLPVAALVGERIFCCHGGLSPSLRNLQQINHIQRPTDIPDEGIMCDLLWADLNHTTKGWGHNDRGVSFTFDKVIVRDFLKAFDLQLMVRAHEVVEDGYEFFANRQLVTVFSAPNYCGMMNNAGGVMSVSTDLICSFVIILPCHKYKMI
retro_dmel_38	drosophila_melanogaster	FBgn0262736		2R	12835215	12835683	-	KNOWN_PROTEIN_CODING	FBgn0262513			67.95	0	0	0	FBpp0085483	98.11	159	3	159	EVSSDNPIYGPFFGVMGAASAIIFSALGAAYGTAKSGTGIAAMSVMRPELIMKSIIPVVMAGIIAIYGLVVAVLIAGALEEPSKYSLYRGFIHLGAGLAVGFSGLAAGFAIGIVGDAGVRGTAQQPRLFVGMILILIFAEVLGLYGLIVAIYLYTK	ELSLDEPQCASFFCILGAVCAIVFSTLGAAYGTAKASVGISSMSIKHPQLIMKAIVPVVMAGIIAIYGLVIAVLLAGSLSSP--YSAYKGFLNLSAGLAVGVSGMGAGIAIGVVGEAGVRASAQQPKLFVAIILILIFAEVLGLYGLIVAIYLFSK
retro_dmel_39	drosophila_melanogaster	FBgn0029854		2L	17591697	17592111	-	KNOWN_PROTEIN_CODING	FBgn0032652			52.7	0	0	0	FBpp0088808	83.15	89	3	77	EIRLATVNEHNKATDLWVVIDNKVYDVTKFRLEHPGGEESLVDEAGRDATKAFNDVGHSSEAREMLKKYYIGDL	EIALEEVAQHDSFDDCWVVIYDRVYDVTHFLRDHPGGDDVIMDHAGRDATIAFHGTGHSGDAIEMMKDFLIGQL
retro_dmel_40	drosophila_melanogaster	FBgn0015024		2L	17554438	17555611	-	KNOWN_PROTEIN_CODING	FBgn0032650			60.62	0	0	0	FBpp0073513	94.96	337	12	332	EIIVGGKYRVIRKIGSGSFGDIYLGMSIQSGEEVAIKMESAHARHPQLLYEAKLYRILSGGVGFPRIRHHGKEKNFNTLVMDLLGPSLEDLFNFCTRHFTIKTVLMLVDQMIGRLEYIHLKCFIHRDIKPDNFLMGIGRHCNKLFLIDFGLAKKFRDPHTRHHIVYREDKNLTGTARYASINAHLGIEQSRRDDMESLGYVMMYFNRGVLPWQGMKANTKQQKYEKISEKKMSTPIEVLCKGSPAEFSMYLNYCRSLRFEEQPDYMYLRQLFRILFRTLNHQYDYIYDWTMLKQKTHQGQPNPAILLEQLDKDKEKQNGK	KLLIGGKYRLVKPIGSGSFGDIYLGLSITDGSEVAIKVEKNDAKYPQLIYEAKVYEQLARCPGFPTLLHYGCEKNYNAMVMDLLGPSLEELFNLCKRRFSLKTVLMLTDQLLMRIECVHERGFIHRDIKPDNFLMGLDRHCNKLYLIDFGLSKRYKDIESEIHIPYRTDRNLTGTVRYASINAQIGVEQSRRDDMESMSYCLMYFNLGKLPWQGITAANKKQKYEKILEKKTSVTIAQLCKGFPSEFCLLMTYVRNLGFKEPPDHTYLRQIFRILFRSLNHHYDYIYDWTALQQQKDQICRSREQILESEREEVRKRDGE
retro_dmel_41	drosophila_melanogaster	FBgn0035670		3L	17542936	17543749	+	KNOWN_PROTEIN_CODING	FBgn0036738			50.21	0	0	0	FBpp0076774	80.34	290	46	279	ITGGQIAEPNQFPYQVGLLLYITGGAAWCGGTIISDRWIITAAHCTDSLTTGVDVYLGAHDRTNAKEEGQQIIFVETKNVIVHEDWIAETITNDISLIKLPVPIEFNKYIQPAKLPVK-SDSYSTYGGENAIASGWGKISDSATGATDILQYATVPIMNNSGCSPWYFGLVAASNICIKTTGGISTCNGDSGGPLVLDDG-SNTLIGATSFGIALGCEVGWPGVFTRITYYLDWI	ITNGEPAEVGQFPYQAGLNVSFGNWSTWCGGTLISHYWIITAAHCMDG-AESVTVYLGAINIGDESEEGQERIMVEKSGIIVHSNYMASTVVNDISLIRLPAFVGFTDRIRAASLPRRLNGQFPTYESIRAFASGWGRESDASDSVSPVLRYVEMPIMPHSLCRMYWSGAVSEKMICMSTTSGKSTCHGDSGGPLVYKQGNSSYLIGSTSFGTSMGCQVGFPAVFTRISSYLDWI
retro_dmel_42	drosophila_melanogaster	FBgn0003134		3R	8250501	8251410	-	KNOWN_PROTEIN_CODING	FBgn0004103			96.68	0	0	0	FBpp0084026	92.05	327	0	301	MSDIMNIDSIISRLLEVRGARPGKNVQLSESEIRSLCLKSREIFLSQPILLELEAPLKICGDIHGQYYDLLRLFEYGGFPPESNYLFLGDYVDRGKQSLETICLLLAYKIKYAENFFLLRGNHECASINRIYGFYDECKRRYTIKLWKTFTDCFNCLPVAAIVDEKIFCCHGGLSPDLSSMEQIRRIMRPTDVPDQGLLCDLLWSDPDKDTMGWGENDRGVSFTFGAEVVGKFLQKHEFDLICRAHQVVEDGYEFFAKRQLVTLFSAPNYCGEFDNAGAMMSVDDTLMCSFQILKPADKRR	MGDVMNIDSIISRLLEVRGARPGKNVQLSEGEIRGLCLKSREIFLSQPILLELEAPLKICGDIHGQYYDLLRLFEYGGFPPESNYLFLGDYVDRGKQSLETICLLLAYKIKYSENFFLLRGNHECASINRIYGFYDECKRRYSIKLWKTFTDCFNCLPVAAIVDEKIFCCHGGLSPDLTSMEQIRRIMRPTDVPDQGLLCDLLWSDPDKDTMGWGENDRGVSFTFGAEVVAKFLQKHEFDLICRAHQVVEDGYEFFAKRMLVTLFSAPNYCGEFDNAGAMMSVDDTLMCSFQILKPADKRK
retro_dmel_43	drosophila_melanogaster	FBgn0028552		3R	5946244	5947096	-	KNOWN_PROTEIN_CODING	FBgn0037789			72.83	0	0	0	FBpp0072096	83.77	302	37	290	ADEYSKAATAYRIAKSYDKSKECFLKAIDAYKNNKSWFHAAKAYEQIILLSKDADKLHEVEEYANKSASLYQQHGSPEAAASALDKAAKLTESKHPDMALRFYQHALEVIMIEDSVRQAAEYASKVSRILVKLRRYDEATNALKKEISLNQQTESYGQIGRLVVALVMVQLARGDSVEAEKTFREWGNCCEPEEVSTLQTLLQAFDDEDPELAARMLASPFIRHMDVEYAILSKNIPLPQG-IQMEKKAGDTAA	AGMYFKAATAYRIAKSFDKRKDCLLKAIDCYENNKSWFHAAKSYEQIILLAKETDKLSEVEDYANRACCLYQQHGSPEAAAAALDKAAKMTESKHPDLALGFYKRALAVVLIGDSTHQASEFASKVSRILVRLKKYEEATKALKKEISLNLQTKSYGQVGRLVVALILVQLTLEDYVDAKKTFKKWGNRCDPQEVNTLQNLLKAFDDEDPELATKMLASPFIRHMDVEYALLSKDVPLPKGNRQMTKNAVDNAA
retro_dmel_44	drosophila_melanogaster	FBgn0001145		2L	132482	133682	+	KNOWN_PROTEIN_CODING	FBgn0001142	FBgn0031228		64.95	0	0	0	FBpp0073344	99.46	369	2	369	SAILEDSPNARINKTILDRYLSLPLQENIVQATYVWIDGTGEDLRCKDRTLDFIPQSPKELPVWNYDGSSCYQAEGSNSDTYLYPVAIYKDPFRRG-NNILVMCDTYKFDGTPTDTNKRKTCLEVANKCAAEEPWFGIEQEYTFLDFDGHPLGWPKNGFPGPQGPYYCGVGANKVYARDIVDAHYRACLYAGIKVSGTNAEVMPAQWEFQVGPCEGISIGDDLWMARFLLHRISEEFGIVSTLDPKPMPGDWNGAGAHTNVSTKAMREDGGIRDIEKAVAKLSKCHERHIRAYDPKQGQDNARRLTGKHETSSINDFSAGVANRGCSIRIPRGVNDDGKGYFEDRRPSSNCDPYSVVEAILRTICLDE	SQFLANSPNTALDKSILQRYRNLETPANRVQATYLWIDGTGENIRLKDRVLDKVPSSVEDLPDWQYDGSSTYQAHGENSDTTLKPRAIYRDPFKPGKNDVIVLCDTYSADGKPTASNKRAAFQAAIDLISDQEPWFGIEQEYTLLDVDGRPFGWPENGFPAPQGPYYCGVGADRVYARDLVEAHVVACLYAGIDFAGTNAEVMPAQWEFQIGPA-GIKACDDLWVSRYILQRIAEEYGVVVTFDPKPMEGQWNGAGAHTNFSTKEMRADGGIKAIEEAIEKLSKRHERHIKAYDPKEGKDNERRLVGRLETSSIDKFSWGVANRAVSVRVPRGVATAGKGYLEDRRPSSNCDPYAVCNAIVRTCLLNE
retro_dmel_45	drosophila_melanogaster	FBgn0031636		3L	7319991	7321428	-	KNOWN_PROTEIN_CODING	FBgn0035763			70.89	0	0	0	FBpp0077077	97.73	485	0	474	MSREERKPIVSSSSSSTCSSSDDEVHPVVRRRSTRDTELAGHQKDAGCCDPTSTPHRFLALLFMCLLGFGSYFCYDNPGALQDVFQKELQLSSTEFTLIYSIYSWPNIVLCFVGGFLIDRVFGIRLGTIIYMLIVLVGQLIFATGGVLGHFWLMIVGRFVFGIGAESLAVAQNSYAVLWFKGKEINMVFGLQLSVARFGSTVNFWIMQPLYGYVSKSYSGYKGLGVALFLASSTCVMSLVCTLILGWMDKRAERILKRNNNPGGELAKLSDIVTFKLDFWMVSVVCVAYYVAIFPFVALGQAFFVSNFHMTPDEANTVNSIVYLISAIASPLFGFVIDKVGRNVTWVFCATISTLLAHFLLTFTHLDPYIGMSIMGLSYSMLAASLWPLVSLIVPEYQLGTAYGFCQSVQNLGLAVVTIAAGIIVDSSGGSHFWLQVFFMSFLLVSLLATCAIWAYNRKHQGNLNMSPAQRATY	MAREDEERIVDNEEVSRPTEEDQ----VVSRAGRRDNELS--LPSGGCCMPSSTSHRFMALVFMCLLGFGSYFCYDAPGALQNYFKKDLNLTSAQFTLIYSIYSWPNVVLCFVGGFLIDRLFGIRLGTIIYMMILLVGQLIFACGGILDAFWMMILGRFIFGIGAESLAVAQNSYAVLWFKGKELNMVFGLQLSVARFGSTVNFWVMQPIYEYVSNFYKGHTALGVVLLLATLTCVMSMTCALILGWMDKRAERILQRNNNPAGQIPKLTDVFSFKPPFWMVSIICVAYYVAIFPFIALGQNFFVDRFGLSPAEANTVDSLVYLIAAVSSPVFGFIIDKLGRNVTWVFTATLTTIGAHALLTFTQLTPYVGMIIMGLSYSMLAASLWPLVALIIPEYQLGTAYGFCQSIQNLGLAVITIVAGIIVDHSGGEHMWLQLFFMGWLTIALISTGVIWAYNNKNRGNLNMTPQQRAQF
retro_dmel_46	drosophila_melanogaster	FBgn0010497		2L	13595551	13596997	-	KNOWN_PROTEIN_CODING	FBgn0028513	FBgn0259984		71.31	0	0	0	FBpp0079876	93.75	496	2	467	QQPQWGISLSRYFVIPQRVILAIMGFLAILNAYTMRVCLSQAITVLVVKKNSTDDDSEAICEPDDIDEGTSV--GGDFEWSEELQGLILSSFYIGYIVTHIPGGLLAEKFGGKWTLGLGILSTAVFTMLTPLAINKGDSDWLIVTRVLMGLGEGTTFPALSVLLAAWVPANERGKLGALVLGGGQVGTIMGNLLSGVFIDAYGWEFVFYFFGGLGVVWFAIFMFLCYSDPTSHPFIKPSEREYLVKEIGTISRNEDLPPTPWKAILTNLPMFALVAAQIGHDWGFYIMVTDLPKYMADVLQFSIKANGLYSSLPYVMMWIVSVGSGFVADWMIRRGVLSTTNTRKVMTGLAAFGPAIFMVGASYAGCDRVLVVVLFTICMGLMGAYYAGMKLSPLDMSPNYAGTLMAITNGIGAITGVITPYLVGVMTPNASLLEWRLVFWVAFGVLCFTAVIYCIWASGEVQPFNN	EQPEWGIKLSKFFVLPQRWILAIMGFFAIFNAYTMRICLSQAITVLVVKRNYTIFHTEAICEPDDQSDPSSTFEGGDYDWSQEKQGLILASFYIGYIVTHLPGGILADKFGGKWTLSLGIFFTAIFTLLTPVCIVYGGADALIVLRVLMGLGEGTTFPALSVLLASWVPANERGMLGALVLGGGQMGSIAGNIISGYVLSSMDWPWVFYVFAIIALVWFVVFTLVCFSSPFTHPYIKPEERAFLAQEVPPPDKNK--PKTPFFAILTSIPMWALISAQIGHDWGFYIMVSYLPKYMSDVLRFSIKSNGLYSSLPYVTMWIMSLLSGCVADQMIKRNCMSTTNTRKIMTGVAAFGPAVFMVAASYAGCNRGMVVALFTITMGLMGTYYAGMKLTPLDMSPNYAGTLMAITNGIGAITGVVSPYLVGVMTPNATLLEWRLVFWVAFGVLVVTAIVYCIWASGDVQPFND
retro_dmel_47	drosophila_melanogaster	FBgn0004888		3R	15287657	15288686	-	KNOWN_PROTEIN_CODING	FBgn0038708	FBgn0260003		67.64	0	0	0	FBpp0073010	94.21	328	19	328	RCNSQYNKTRGNLKLNGDSRVICQGFTGKQGTFHSQQALEYGTKLVGGISPKKGGTQHLGLPVFASVAEAKKATDPHATVIYVPPPGAAAAIIEALEAEIPLIVCITEGVPQHDMVKVKHALISQSKSRLVGPNCPGIIAPEQCKIGIMPGHIHKRGKIGVVSRSGTLTYEAVHQTTEVGLGQTLCVGIGGDPFNGTDFIDCLEVFLKDPETKGIILIGEIGGVAEEKAADYLTEYNSGIKAKPVVSFIAGVSAPPGRRMGHAGAIISGGKGGANDKIAALEKAGVIVTRSPAKMGHELFKEMKRLELV	RGKADYGKTVCNLKINKATKVLVQGFTGKQATFHSEESIKYGTNIVGGVNPKKGGTEHLGKPVFKSVAEAVEKAKPDATVIFIPPPSAAEGICAAIESEIGLIVAITEGIPQADMVRISQMLNCQEKSRLLGPNCPGIISPDQCKIGIMPGDIHKRGVVGIVSRSGTLTYESVHQTTNVGLGQALCVGLGGDPFNGTSFIDALKVFLSDKEIKGIVMIGEIGGSAEEEAADFLKEKNTGCEAKPVVGFIAGQTAPPGRRMGHAGAIISGGKGAAKDKVAALEKAGVRMTANPCHLGSTLLEEMIRLKLV
retro_dmel_48	drosophila_melanogaster	FBgn0003134		2R	17929317	17930358	-	KNOWN_PROTEIN_CODING	FBgn0005778			68.03	0	0	0	FBpp0084026	82.26	327	27	296	LSESEIRSLCLKSREIFLSQPILLELEAPLKICGDIHGQYYDLLRLFEYGGFPPESNYLFLGDYVDRGKQSLETICLLLAYKIKYAENFFLLRGNHECASINRIYGFYDECKRRYTIKLWKTFTDCFNCLPVAAIVDEKIFCCHGGLSPDLSSMEQIRRIMRPTDVPDQGLLCDLLWSDPDKDTMGWGENDRGVSFTFGAEVVGKFLQKHEFDLICRAHQVVEDGYEFFAKRQLVTLFSAPNYCGEFDNAGAMMSVDDTLMCSFQILKP	LSEATITYICQASRELFLSQPMLLELSAPVKICGDLHGQFKDLLRIFQQCGVPPLSNYLFLGDYVDRGHCSIETLSLLLTYKLRYPETFFLLRGNHESADLNRVYGFFDECKRRYSIKLWRSFVDCYDCMPVAAIIADRIFCVHGGLSPDLNNLDDIRRLNRPTDVPSDGLLCDLLWSDPDETTGTWASNDRGVSFTFGANIVEGFLMQHKFNLIVRAHQVVEDGYEFFADRQLVTIFSAPNYCDIFDNCGAVLVVDAKLVCHFVIIRP
retro_dmel_49	drosophila_melanogaster	FBgn0052675		3L	11725323	11726547	+	KNOWN_PROTEIN_CODING	FBgn0052087			57.55	0	0	0	FBpp0071428	64.95	428	67	345	QRLLLATLIVLSIVFSVIYKIDGPHQLAIEFVRRNTWFFVYWLGLGVLSSVGLGTGLHTFLLYLGPHIASVTLAAYECNSLRFPQPPYPDDIICPEEPYDKHVPNIWSIMSKVRLEAFLWGAGTALGELPPYFMAKAARLSGYDPEDAEELAEFEALNAKRHQKNLSMMDRGKLFMERVVERVGFFGILACASIPNPLFDLAGITCGHFLVPFWTFFGATLIGKAVIKMHIQKIFVIIAFNETLIERAVDLLATLPVLGHKLQEPFKSFLKNQKQRLH	EKLLNLWLVGGLLLLGMFCLLPGPHADFVIFCKHRFGFAVYWLGLGVLSSVGFGTGLHTFLLYLGPHLAAVTLAAYECQTLDFPTPPYPDIKVCPQEPYKRNYPDVWQILAKVRPEALLWGIGTALGELPPYFMTRRARLSGKELDGAEE---EKLLDERRRCGKLGMLDHAKLFMERVMRRVGFMGILFCASVPNPLFDLAGITCGHFLVPFWKFFVATLIGKALIKATIQQLFVIASLTESLVDRFVVGLGKLPYLGPPMQRMIRELLQSTKQQMH
retro_dmel_50	drosophila_melanogaster	FBgn0015622		X	16417334	16419254	-	KNOWN_PROTEIN_CODING	FBgn0264077	FBgn0264255		76.39	0	0	0	FBpp0084803	97.19	605	14	602	LLFASSLLLLSAANAADLDTESDDFEDGYVEDVQEEPAVIGGDEKLAYESPVIDAKKFHFADHFDDVEESRKRWVLSQAKKDDIAEEISKYDGIWNWESPQRIVWANDLGLVLKSKAKHAAIAAPLRKPFEFKSDKPLVVQYEVTLQEGQECGGSYLKLLSAGKDTEQLKAFNDKTPYTIMFGPDKCGNDVKMHFIFRHVNPINGTITEKHCNKPKNRLEEPFKDKLPHLYQLVVRPDNSFEIRVDHKIINEGSLLTDFKPPVNPPAEIDDPNDHKPESWDEREKIPDPTAHKPEDWDEDAPPQLPDTDAVMPNGWLEDEPDMIFDPTATKPEDWDAEIDGEWEAPLVDNPVCEKAPGCGKWKAPLIPNPNYKGKWRAPMIENPNYQGKWAPRKIPNPDFFEDLKPFQMTPISAVGLELWSMSSDILFDNLIITDDVEVARDFAANSFDIKRRYIDRESDSFVNKVVELAKANPSIWGIGLVAIVALVALTIYCRFGTAKSQDSAAKK-AAAEAKKSDDPQPDDEPEAEEESD-ERAAGDTSKESTPLSASPKKN---QKSDLDDNEEESKAAESREPAQTEESNTKTRKRQA	MLFAI-LLLLSAAKTGYLAPES----ENSVEDVQIEPGAIYGDEKFAYKSPVIDAEKFYFADHFDDVEASRKRWVLSQAKKNDIADEIAKYDGIWNWESPQRIFWANDLGLVLKSKAKHAAIAAPFRQPFDFKSNKPLVVQYELTLQEGQDCGGSYLKLLSAGKGTEQLNRFNDKTPYTIMFGPDKCGNNLKMHFIFRHVNPLNGNITEKHCKKPNARLGVPFTDKLPHLYQLVVRPDNSFEIRLDHKIIKEGSLLTDFVPPVNPPAEIDDPNDHKPESWDERKKIPDPNAHKPEDWDEDAPPHLPDTDAVMPNGWLEDEPDMIFDPTAIEPEDWNSEIDGEWEAPLVENPVCKKAPGCGKWKAPLIPNPNYKGKWSAPMIENPNNQGKWAPRKIANPDFFEDLKPFQMTPINAVGLELWSMSSDILFDNLIITDDVELARDFAANSFDIKRLYIDRE--SFGNKVVELARANRAIWGIVIVAIAVPVAITIFCKFGLGPSRVAAAKKAAAAAAKKTDDPQPDDDLGAEEEEKLEKGKKEEEKKEEEEEEEKEENKEEKKEEEKDDEKEMKDCEEEEDDEEKDDEEKTDERAA
retro_dmel_51	drosophila_melanogaster	FBgn0032810		2L	19564337	19565006	+	KNOWN_PROTEIN_CODING	FBgn0032809			50.24	0	0	0	FBpp0080798	77.7	269	57	266	LQRLEYFLNVLNQMCIGFITIYISYLTLRTGLSGTGLHAWLVTIGFSFFMAEGVMIHYGGNVLTNGYKRQTKTTIHWVLLTLGGGCGAAGALIKMIQKGFLLQST-HGRLGMTAFVLCILAMSSGLAALFSSRIKKLITPLLNKTFHNFLGFACFVIALVTQYYGY-QTGYFKSRSETDFQILMKCLTLISLVLSSYGPMKALYQKCKNIS	LQHIESALYVINQLCIGFVTIWISWTCLRQDLSGIRLHAWLVTFGFVFLMAEGMMCFYDGSWLTVRYSRNYKTAFHVVLQILGGGMGVAGCLIQLIRDDWSISVTLHARLGFAAFVLCLISLLSGLVAFLARCLSRTISPLVNKTFHVVLSFTAFVIAMMAQFYGYTQTGIFRGQGQ-DFVVLMQVVTMVLMVLTSIGAIKSLYQKIGSLA
retro_dmel_52	drosophila_melanogaster	FBgn0033184		2R	9395248	9396718	+	KNOWN_PROTEIN_CODING	FBgn0024556	FBgn0033846		53.33	0	0	0	FBpp0088054	85.53	456	52	442	RELPHCNVGTIGHVDHGKTTLTAAITRIQSQKGLAEYLSYDQIDRAPEEKARGITINACHIGYSTTERTYAHTDCPGHADYIKNMISGASQMDGAILVVAATDGQMPQTREHLLLAKQVGIQRIIVFINKADLVDQEVLELVEIEMREMLSDFGFDGVNSPVICGSALLALREDKSEFGVPSIEKLLEQCDSYIPTPQRDISSPFILPIDNAFTVPGRGTVVVGTIKRGTIPRNADADLLGFNQNLKTSISDIQIFRKSVPQAQAGENVGALLRGIKISAVERGMLLCATGSEDISNHFEGSMYLLSRAEGGRVKPMLSKYIQQLFSQTWNVPARIDIVPSEAMLMPGEHGQVRVTLLRKMVMTPGQAFTIRENGATVATGMVTQRLPSL	RTKPHCNVGTIGHVDHGKTTLTAAITKVLADKQLAESKKYNEIDNAPEEKARGITINVAHVEYQTETRHYGHTDCPGHADYIKNMITGTAQMDGAILVVAATDGAMPQTREHMLLAKQIGIDHIVVFINKVDAADEEMVDLVEMEIRELLTEMGYDGDKIPVVKGSALCALEDKSPEIGKEAILKLLQEVDSFIPTPVRELDKPFLLPVENVYSIPGRGTVVTGRLERGVVKKGMECEFVGYNKVLKSTVTGVEMFHQILEEAQAGDQLGALVRGVKRDDIKRGMVMCKPGSVKALDQLEAQVYILSKDEGGRTKPFMSFIQLQMFSRTWDCAVQVQI-PDKEMVMPGEDTKLILRLIRPMVLEQGQRFTLRDGNLTLGTGVVTSTLPPL
retro_dmel_53	drosophila_melanogaster	FBgn0015614		X	5227437	5227950	+	KNOWN_PROTEIN_CODING	FBgn0010014			97.65	0	0	0	FBpp0301600	100	170	0	170	MGNETSLPMEMCSNFDADEIRRLGKRFRKLDLDNSGALSVDEFMSLPELQQNPLVQRVIDIFDADGNGEVDFKEFIQGVSQFSVKGDKLSKLRFAFRIYDMDNDGYISNGELFQVLKMMVGNNLKDTQLQQIVDKTIGFADKDEDGKISFDEFCSVVGNTDIHKKMVVDV	MGNETSLPMDMCSNFDADEIRRLGKRFRKLDLDNSGALSIDEFMSLPELQQNPLVQRVIDIFDADGNGEVDFKEFIQGVSQFSVRGDKLSKLRFAFRIYDMDNDGYISNGELFQVLKMMVGNNLKDTQLQQIVDKTICFADKDEDGKISFDEFCSVVGNTDIHKKMVVDV
retro_dmel_54	drosophila_melanogaster	FBgn0262559		3L	12964381	12965431	-	KNOWN_PROTEIN_CODING	FBgn0036327			52.43	0	0	0	FBpp0082985	91.96	336	25	334	KVTVCGAAGGIGQPLSLLLKQNPLVTDLALYDIVHTPGVAADLSHIDTKSKTAGFIGADQLGDSLKGSDVVVIPAGVPRKPGMTRDDLFNVNAGIIKDISNSIAKNCPKALVAIITNPVNTCVPIAAEILKKAGVYDPKRLFGVSTLDVVRARAFIGHALGVDPQTVQIPVIGGHSGVTILPVLSQSQPLFKGNQDTIEKLTVRIQEAGTEVVKAKAGAGSATLSMAYAGARFAGSLLKGLNGEKNVIECSYVQSTVTEATFFSTPLVLGKNGVQENLGLPKLNDYEKKLLEAAIPELKKNIQKGIDFA	KVAVVGAGGGIGQPLSLLLRRCPGIDELALHDLSEMKGIATDLSHISQTGKVIGFTGEKELESAVSGADVVVVAAGMPRLPGMQRDHLMAANGNVAVKVATAISNASPRAHLAFITNPVNMIVPAAAEVLMAHGTFDSRRLFGITTLDVVRSKKFIGDSMNISPDDVNIPVIGGHAGITILPLISQCQPIYRCDLQEIQNLTHRIQEAGTEVVNAKAGKGSATLSMAYAGATFVNSLLRGIAGQDGLIECAFVASKLTDAPFFASPLELGKDGIKRYIPLPQMSDYEKEALEKLLPILRQNADEGVNFA
retro_dmel_55	drosophila_melanogaster	FBgn0025638		3L	358030	358399	+	KNOWN_PROTEIN_CODING	FBgn0040291			61.68	0	0	0	FBpp0070117	99.07	108	0	107	MEVDEDGYEVPSSSSKGDKKRFEVKKWNAVALWAWDIVVDNCAICRNHIMDLCIECQANQASATSEECTVAWGVCNHAFHFHCISRWLKTRQVCPLDNREWDFQKYG	MDFNDEEPSCSGGAVQARTERFVVKKWVAHAMWGWDVAVDNCAICRNHIMNLCIECQADP-NANQDECTVAWGECNHAFHYHCIARWLKTRLVCPLDNKEWVYQKYG
retro_dmel_56	drosophila_melanogaster	FBgn0010100		3R	6962973	6965325	+	KNOWN_PROTEIN_CODING	FBgn0037862			79.33	0	0	0	FBpp0289654	98.22	787	13	786	RLGKHVASEATVVRQFHASCYT-ASKVALSKFDSDVYLPYEKLNKRLEVVRGRLNRPLTLSEKVLYSHLDDPANQDIVRGTSYLRLRPDRVAMQDATAQMALLQFISSGLKKVAVPSTVHCDHLIEAQIGGPKDLARAKDLNKEVYDFLASTCAKYGLGFWKPGSGIIHQIILENYAFPGLLMIGTDSHTPNGGGLGGLCIGVGGADAVDVMADIPWELKCPKVIGVNLTGKISGWTSPKDVILKVADILTVKGGTGAIIEYHGKGVDSISCTGMATICNMGAEIGATTSLFPFNQRMADYLKSTGRAGIASEAQKYQAKILSADKNCEYDELIEINLDTLEPHVNGPFTPDLGHPISKLGENSKKNGYPMDIRVGLIGSCTNSSYEDMGRCASIAKDAMSHGLKSKIPFNVTPGSEQIRATIERDGISEVFDKFGGTVLANACGPCIGQWDRKDVKKGDKNTIVTSYNRNFTGRNDANPATHCFVTSPELVTALSIAGRLDFNPLTDELTGADGKKFKLKAPFGDELPAKGFDPGQDTYTAPPPSGENVKVAVDPKSTRLQLLEPFDKWNGQDLTDLTVLIKVKGKCTTDHISAAGPWLKYRGHLDNISNNMFIGATNYENNEMNNIKNQRNGSWGGVPDVARDYKANGIKWVAVGDENYGEGSSREHAALEPRHLGGRAIIVKSFARIHETNLKKQGLLPLTFANPADYDKIQPTSKISLLNLKSLAPGKPVDAEIKNGDKVERIKLNHTLNDLQIGWFKAGSALNRMKELA	RTHRYICLAGSMVRNFHTARFPRCDKVAMSNFDTGIPLPYKKLRENLDCIKGRLGGPLTLSEKVLYSHLDQPDSQEIERGKSYLRLRPDRVALQDATAQMTLLQFISSGLKKVAVPSTVHCDHLIEAQISGDKDLARAKDLNKEVYDFLSSACAKYNLGFWKPGSGIIHQIILENYAFPGLLMIGTDSHTPNGGGLGCLCVGVGGADAVDVMANIPWELKCPTVIGCHLTGKISGWTSPKDVILKVAEILTVKGGTGAIVEYHGPGVESISCTGMATITNMGAEIGATTSIFPFNERMVTYLRATGRGAIADEATKNK-DLLVPDEGCKYDKVIEINLDTLEPLVNGPFTPDLAHPISKLGQNSEKNGYPMEIKVSLIGSCTNSSYEDMGRCASIANDALGHGLKSCVPFNVTPGSEQVRATIARDGIIDVLEKFGGTVLANACGPCIGQWDRKDVKMGEKNTIVTSYNRNFTGRNDANPATHCFVTSPEMATALAIAGRLDFNPMTDELTGTDGKTFKLKEPHGEELPSKGFDPGEDTYQAPPAKADDIKVNVDPKSDRLQLLEPFEKWDGKDYIDLMVLIKIKGKCTTDHISAAGPWLKYRGHLDNISNNMFIGATNAENNEMNKVKNQKTGSFDAVPAVARDYKANKIKWCAVGEENYGEGSSREHAALEPRHLGGVAIIVKSFARIHETNLKKQGMLALTFANPGDYDKVQPSSKISILNLKDLAPGKPVDAEIKNNGSSDKIQLNHTLNELQIQWFQAGSALNLMKELA
retro_dmel_57	drosophila_melanogaster	FBgn0014869		3R	8057520	8058399	-	KNOWN_PROTEIN_CODING	FBgn0011270			75.89	0	0	0	FBpp0084753	99.22	255	2	255	GKYKIVMVRHGESEWNQKNQFCGWYDANLSEKGQEEALAAGKAVKDAGLEFDVAHTSVLTRAQVTLASILKASGHKEIPIQKTWRLNERHYGGLTGLNKAETAAKYGEAQVQIWRRSFDTPPPPMEPGHPYYENIVKDPRYAEGPKPEEFPQFESLKLTIERTLPYWNDVIIPQMKEGKRILIAAHGNSLRGIVKHLDNLSEDAIMALNLPTGIPFVYELDENFKPVVSMQFLGDEETVKKAIEAVAAQGKAK	GKYRIVMVRHGESEWNQKNLFCGWFDAKLSEKGQQEACAAGKALKDAKIEFDVAHTSVLTRAQETLRAALKSSEHKKIPVCTTWRLNERHYGGLTGLNKAETAKKFGEEKVKIWRRSFDTPPPPMEKDHEYYACIVEDPRYKDQLKPEEFPKSESLKLTIERTLPYWNEVIVPQIKDGMRVLIAAHGNSLRGVVKHLECISDKDIMSLNLPTGIPFVYELDESLKPLATLKFLGDPETVKKAMESVANQGKAK
retro_dmel_58	drosophila_melanogaster	FBgn0020653		3L	22543420	22544971	+	KNOWN_PROTEIN_CODING	FBgn0037170			75.91	0	0	0	FBpp0071115	100	491	0	491	MAPVQGSYDYDLIVIGGGSAGLACAKEAVLNGARVACLDFVKPTPTLGTKWGVGGTCVNVGCIPKKLMHQASLLGEAVHEAAAYGWNVDE-KIKPDWHKLVQSVQNHIKSVNWVTRVDLRDKKVEYINGLGSFVDSHTL--LAKLKSGERTITAQTFVIAVGGRPRYPDIPGAVEYGITSDDLFSLDREPGKTLVVGAGYIGLECAGFLKGLGYEPTVMVRSIVLRGFDQQMAELVAASMEERGIPFLRKTVPLSVEKQDDGKLLVKYKNVETGEEAEDVYDTVLWAIGRKGLVDDLNLPNAGVTVQKDKIPVDSQEATNVANIYAVGDIIYGKPELTPVAVLAGRLLARRLYGGSTQRMDYKDVATTVFTPLEYACVGLSEEDAVKQFGADEIEVFHGYYKPTEFFIPQKSVRYCYLKAVAERHGDQRVYGLHYIGPVAGEVIQGFAAALKSGLTINTLINTVGIHPTTAEEFTRLAITKRSGLDPTPASCCS	LAASRPRYDYDLVVLGGGSAGLACAKEAAGCGARVLCFDYVKPTP-VGTKWGIGGTCVNVGCIPKKLMHQASLLGEAVHEAVAYGWNVDDTNIRPDWRKLVRSVQNHIKSVNWVTRVDLRDKKVEYVNSMATFRDSHTIEYVAMPGAEHRQVTSEYVVVAVGGRPRYPDIPGAVELGITSDDIFSYEREPGRTLVVGAGYVGLECACFLKGLGYEPTVMVRSIVLRGFDRQMSELLAAMMTERGIPFLGTTIPKAVERQADGRLLVRYRNTTTQMDGSDVFDTVLWAIGRKGLIEDLNLDAAGVKTHDDKIVVDAAEATSVPHIFAVGDIIYGRPELTPVAILSGRLLARRLFAGSTQLMDYADVATTVFTPLEYSCVGMSEETAIELRGADNIEVFHGYYKPTEFFIPQKSVRHCYLKAVAEVSGDQKILGLHYIGPVAGEVIQGFAAALKTGLTVKTLLNTVGIHPTTAEEFTRLSITKRSGRDPTPASCCS
retro_dmel_59	drosophila_melanogaster	FBgn0031771		2R	13482788	13484897	+	KNOWN_PROTEIN_CODING	FBgn0034251	FBgn0029006		79.68	0	0	0	FBpp0078847	92.41	474	31	469	QAPPPGTPPPQTKTKFGPLADEDRIFTNLYGRHDWRLKGALKRGDWYKTKEIVLKGADWIVNEIKTSGLRGRGGAGFPSGMKWSFMNKPGDGRPKYLVVNADEGEPGTCKDREIMRHDPHKLVEGCLIAGRAMGAQAAYIYIRGEFYNEASNMQLAIAEAYQAGLIGKNACGTGYDFDVFMHRGAGAYICGEETALIESLEGKQGKPRLKPPFPADVGVFGCPTTVTNVETVAVAPTICRRGGVWFASFGRTRNSGTKLFNISGHVNRPCTVEEEMSIPLKELIERHCGGVTGGWDNLLGVIPGGSSTPIIPKNVCDDVIMDFDGLIAAQTSLGTAAIIVMDKSTDVIKAIARLISFYKHESCGQCTPCREGIGWMNKIMTRFVKGDAQPAEIDMLWEISKQIEGHTICALGDGAAWPVQGLIRHFRPEIEKRMQLHA	KGPPPGTPPPQTKTTFGPLADADRIFTNLYGRHDWRLKAAMKRGDWYKTKEIIAKGDKWIVNEIKTSGLRGRGGAGFPSGLKWSFMHKPPDGRPKFLVVNADEGEPGTCKDREIMRHDPHKLVEGCLIAGRAMGANTGFIYIRGEFYNEACNLQYAIIEAYKAGYLGKNACGSGFDFDLYVQRGAGAYICGEETSLIESLEGKAGKPRNKPPFPADIGVFGCPSTVTNVETVAVSPTICRRGGNWFASFGRTRNSGTKLFNISGHVCNPCTVEEEMSMPTRELIERHAGGVIGGWDNLLAIIPGGSSTPCITKEHASSAIHDYDGLMAVRSSMGTGALIVMNKDTDIIKAIARLSAFYKHESCGQCTPCREGLHWVNMIMHRFVTGQAQIAEIDMLFELTKQIEGHTICALADGAAWPPQGLIRNFRPVIEERIKKRA
retro_dmel_60	drosophila_melanogaster	FBgn0000489		2L	9696504	9697566	-	KNOWN_PROTEIN_CODING	FBgn0000273			51.8	0	0	0	FBpp0075284	66.8	500	147	481	HDSSESIEEDDGNETDDEEDDDESEESSSVQTAKGVRKYHLDDYQIIKTVGTGTFGRVCLCRDRISEKYCAMKILAMTEVIRLKQIEHVKNERNILREIRHPFVISLEWSTKDDSNLYMIFDYVCGGELFTYLRNAGKFTSQTSNFYAAEIVSALEYLHSLQIVYRDLKPENLLINRDGHLKITDFGFAKKLRDRTWTLCGTPEYIAPEIIQSKGHNKAVDWWALGVLIYEMLVGYPPFYDEQPFGIYEKILSGKIEWERHMDPIAKDLIKKLLVNDRTKRLGNMKNGADDVKRHRWFKHLNWNDVYSKKLKPPILPDVHHDGDTKNFDDYPEK	NNATTSNKKVDAAETVKEFLEQAKEEFEDKWRRNPTNTAALDDFERIKTLGTGSFGRVMIVQHKPTKDYYAMKILDKQKVVKLKQVEHTLNEKRILQAIQFPFLVSLRYHFKDNSNLYMVLEYVPGGEMFSHLRKVGRFSEPHSRFYAAQIVLAFEYLHYLDLIYRDLKPENLLIDSQGYLKVTDFGFAKRVKGRTWTLCGTPEYLAPEIILSKGYNKAVDWWALGVLVYEMAAGYPPFFADQPIQIYEKIVSGKVRFPSHFGSDLKDLLRNLLQVDLTKRYGNLKAGVNDIKNQKWFASTDWIAIFQKKIEAPFIPRCKGPGDTSNFDDYEEE
retro_dmel_61	drosophila_melanogaster	FBgn0030263		3R	3326867	3327965	-	KNOWN_PROTEIN_CODING	FBgn0037506	FBgn0015577		67.1	0	0	0	FBpp0073284	90.32	341	33	341	NLNLSTVRTYARRVV-RTREPVEEM-RAPSLKEKLMGPPSANAYSMGKGAAAGAAAVGLGALCYYGVGLGKQTSIADNAIMWPQFVRDRIQSTYAFFGGSCVLTAAAAAATFRSHRLLELASRGGILATIASLALVIGSGAVARSIEYQPGLGAKHLAWAVHCAILGAVIAPICFMGGPILTRAALYTGGIVGGLSTIAACAPSDKFLYMGGPLAIGLGVVFASSLASMWLPPTTALGAGLASMSLYGGLVLFSGFLLYDTQRMVRRAEVYPQYSYTPYDPINASMSIYMDVLNIFIRIVTILSGGQRRK	NMQELGMRKYSRESRDRDRSQLESRTRGPSLKERMMGPPSENAYSMGKGAAAGAALMGLVGLCYYGLGLANQPSIYDHSMVWPQYVRDRIHATYAYFGASCGVTAASAVAFFQSDAMMALMTRSGWVASLVTLGLVMLSGSIAQGLEYQPGFGAKQLAWLVHCAVLGAVLAPMCLLGGPILTKALLYTSGIVGALSTVAACAPSEKFLHMGGPLAIGLGVVFASSLASMWLPPTTAVGAGLASMSLYGGLILFSGFLLYDTQRIVKSAELYPQYSKFPYDPINHALAIYMDALNIFIRIAIILAGDQKRK
retro_dmel_62	drosophila_melanogaster	FBgn0035600		3R	25028422	25029457	-	KNOWN_PROTEIN_CODING	FBgn0039651			70.55	0	0	0	FBpp0076848	89.25	307	31	305	GSWASGNKKLIGALGAITGGVGALIYALEQSVQASGGEVHSPAQLWNHKGLFDALDHQSVRRGYEVYKQVCSACHSMQYIAYRNLVGVTHTEAEAKAEAEQITVKDGPDDTGNYYTRPGKLSDYFPSPYPNEEAARAANNGAYPPDLSYIVSARKGGEDYIFSLLTGYHDAPAGVVLREGQYFNPYFPGGAISMAQVLYNEVIEYED-GTPPTQSQLAKDVATFLKWTSEPEHDDRKQLLIKVIGILGFLTVISYYIKRHKWSSLKSRKIVFVPK	GSGFTGNRKLLGALGALTGTAGLLIYALETSVDASSDCVHPAHQHWNHKGLLSALDKESVRRGYTVYKEVCSSCHSLQYMAYRNLVGVCMTEAEAKAEAEAITVRDGPNEEGEYYERPGKLSDHFPSPYANEEAARSANNGSYPPDLSYIVSARKGGEDYVFSLLTGYCDPPAGFALRDGLYFNPYFSGGAIAMGKVVDNEVVSFEDPNVPASAAQIAKDVCVFLKWTSEPETDERRLLLIKVTLISTFLIGISYYIKRFKWSTLKSRKIFFIPE
retro_dmel_63	drosophila_melanogaster	FBgn0004066		3R	16573990	16574740	-	KNOWN_PROTEIN_CODING	FBgn0017557	FBgn0259222		75.1	0	0	0	FBpp0073989	100	249	0	249	MSSRYDRAVTIFSPDGHLLQVEYAQEAVRKGSTAVGVRGANCVVLGVEKKSVAQLQEDRKVRKICMLDNHVVMAFAGLTADARIMINRAQVECQSHRLNVEDPVTLEYITRFIAQLKQKYTQSNGRRPFGISCLIGGFDADGSAHLFQTEPSGIFYEYKANATGRSAKVVREFFEKSYREEEVANEHGAVKLAIRALLEVAQSGQNNLEVAIMENGKPLKMLDTDVITDYVKIIEKEKEEELEKKKQKK	MSSRYGRALTIFSPDGHLLQVEYAQEAVRKGSTAVGVRGANCVVLGVEKSSVSEMQEDRTVRKISMLDRHVALAFAGLTADARILINRGQVECQSHRLNFENQVTLEYITRYLAQLKQKYTQCNGRRPFGISCLIGGIDADGSARLFHTEPSGIFHEYKATATGRWANTVREFFEKAYSDHEVTTKCDAIKLAMRALLEVTQMSQMRLEVAVLENGKPMKMLDSVVISEIVKIVQNEKELQAKAHKMKR
retro_dmel_64	drosophila_melanogaster	FBgn0035425		3L	581562	582621	+	KNOWN_PROTEIN_CODING	FBgn0035143			68.9	0	0	0	FBpp0072956	80.05	371	0	297	MGQTLSEPVTAKESAYCQNAAYRVGSSCMQGWRINMEDSHTHILSLPDDPGAAFFAVYDGHGGATVAQYAGKHLHKYVLKRPEYNDN-IEQALQQGFLDIDYVMLRNKTCGDQMAGSTAVVVLVKDNKLYCANAGDSRAIACVNGQLEVLSLDHKPNNEAESKRIIQGGGWVEFNRVNGNLALSRALGDYVFKHE-NKKPEDQIVTAFPDVETRKIMDDWEFIVLACDGIWDVMSNAEVLEFCRTRIGMGMFPEEICEELMNHCLAPDCQMGGLGGDNMTVVLVCLLHGRPYSDLIARC	MGQTLSEPVTTKDTACCANASYRVGSSCMQGWRVDMEDAHTHILSLPDDPQAAFFAVYDGHGGASVAKYAGKHLHKFITKRPEYRDNSIEVALKKAFLDFDREMLQNGSLDEQTAGCTAIVVLIRERRLYCANAGDSRAIACISGMVHALSVDHKPNDAKESKRIMASGGWVEFNRVNGNLALSRALGDFIYKKNLLKTPEEQIVTAYPDVEVLDITEDLEFVLLACDGIWDVMSNFEVCQFVHKRIRDGMEPELICEELMNSCLSPDGHTGNVGGDNMTVILVCLLHNKSYEDLAVRC
retro_dmel_65	drosophila_melanogaster	FBgn0262736		3L	11466507	11466984	+	KNOWN_PROTEIN_CODING	FBgn0028667			86.18	0	0	0	FBpp0085483	95.6	159	7	159	DNPIYGPFFGVMGAASAIIFSALGAAYGTAKSGTGIAAMSVMRPELIMKSIIPVVMAGIIAIYGLVVAVLIAGALEEPSKYSLYRGFIHLGAGLAVGFSGLAAGFAIGIVGDAGVRGTAQQPRLFVGMILILIFAEVLGLYGLIVAIYLYTK	DKPAYSFFFGSMGAASAIIFSALGAAYGTAKSGTGIAAMAVMRPELIMKSIIPVVMAGIIAIYGLVVSVLIAGSLSD--SYTIRKGYIHLAAGLSVGFAGLAAGFAIGIVGDAGVRGTAQQPRLFVGMILILIFAEVLGLYGLIVAIYLYTK
retro_dmel_66	drosophila_melanogaster	FBgn0086361		3R	22170052	22171168	-	KNOWN_PROTEIN_CODING	FBgn0039421	FBgn0053970		54.58	0	0	0	FBpp0084809	67.39	371	118	368	GGTTAVCAFVGLTQVYIANCGDSRAVLCRQGVPVFATQDHKPILPEEKERIYNAGGSVMIKRVNGTLAVSRALGDYDFKNVKEKGQCEQLVSPEPEIFCQSRQDSDEFLVLACDGIWDVMSNEDVCSFIHSRMRVTSNLVSIANQVVDTCLHKGSRDNMSIIIIAFPGAPKPTEEAIEAEHRLEKQIEKITRDEIESSKITDYVDLLKCLQNRD-DIEGLPPGGGLQSKYHVIERTFKQEFPDRPCELYAY	GGSTAICVFVSPDKIYLVNCGDSRAVISRNGAAVISTIDHKPFSPKEQERIQNAGGSVMIKRINGTLAVSRAFGDYDFKNDGSKSPVDQMVSPEPDIIVCNRSEHDEFIVVACDGIWDVMTSSEVCEFIRSRLLVTYDLPMIVNSVLDICLHKGSRDNMTLLLLLLPGAPKVDMDAVKAERSLDQTIVQITKEVIEKHEIHDFETLIRLMKRMAINIPNLPPGGGLYAKYYIIEQAFHEKFPDTPAEIYDY
retro_dmel_67	drosophila_melanogaster	FBgn0015024		3R	1251465	1252899	-	KNOWN_PROTEIN_CODING	FBgn0037325	FBgn0037326		54.75	0	0	0	FBpp0073513	90.5	337	7	312	KESRPEIIVGGKYRVIRKIGSGSFGDIYLGMSIQSGEEVAIKMESAHARHPQLLYEAKLYRILSGGVGFPRIRHHGKEKNFNTLVMDLLGPSLEDLFNFCTRHFTIKTVLMLVDQMIGRLEYIHLKCFIHRDIKPDNFLMGIGRHCNKLFLIDFGLAKKFRDPHTRHHIVYREDKNLTGTARYASINAHLGIEQSRRDDMESLGYVMMYFNRGVLPWQGMKANTKQQKYEKISEKKMSTPIEVLCKGSPAEFSMYLNYCRSLRFEEQPDYMYLRQLFRILFRTLNHQYDYIYDWTMLKQKTHQGQ	KQSLPEIIVAGKYRLLKRIGNGSFGELFQAEGLKYHEKVAIKLESSTVKHPLLPREARIYGILQGGLGIPHVKHYATEGAYNVMVMDLLGPTLEDLLNLCSRSFSMKTTLMLADQILARVELLHRRCFIHRDIKPDNFLMGLNRHQTQVYMIDFGLAKKFYSLRTQKHIGYTENRDLVGTARYASVRAHYA-EQSRRDDLESVGYLLLYFQRGRLPWQGIRAQSQAQKYEKIAEYKANIPLQQLCSGLPVEFFMYLKYCRKLHFAEKPDYVYLQQLFKVLFRNQYKVCDFLFDWVVLKRESPEQQ
retro_dmel_68	drosophila_melanogaster	FBgn0035709		3R	24852201	24852723	-	KNOWN_PROTEIN_CODING	FBgn0039622			56.92	0	0	0	FBpp0076672	56.77	229	50	180	KHPLENTWTLWYLENDRSKNWEDMQNEITSFDMVEDFWSLYNHIKQPSEIRVGSDYSLFKKGIQPMWEDDANKFGGRWVINMGRGSKAELDKLWLDVLLILIGEAFENTEEVCGAVINLRGKSNKISIWT	KHRLQNTWTLWGVKYDPEISWEDMLKEIDSFNTVEDFWNLYFRIDTPSKLNRGCDYMLFKKGIRPMWEDPPNKGGGRWTYKVDKRSTAELDKTWLDVLLCMIGEACDHCDQICGAFVRIRKNINKISVWT
retro_dmel_69	drosophila_melanogaster	FBgn0040066		2R	13636522	13637560	+	KNOWN_PROTEIN_CODING	FBgn0034274			55.45	0	0	0	FBpp0300790	83.93	361	56	359	SVKPNYTLKFTLAGHTKAVSAVKFSPNGEWLASSSADKLIKIWGAYDGKFEKTISGHKLGISDVAWSSDSRLLVSGSDDKTLKVWELSTGKSLKTLKGHSNYVFCCNFNPQSNLIVSGSFDESVRIWDVRTGKCLKTLPAHSDPVSAVHFNRDGSLIVSSSYDGLCRIWDTASGQCLKTLIDDDNPPVSFVKFSPNGKYILAATLDNTLKLWDYSKGKCLKTYTGHKNEKYCIFANFSVTGGKWIVSGSEDNMVYIWNLQSKEVVQKLQGHTDTVLCTACHPTENIIASAALENDKTIKLWKS	SMSPGYAIKHSLLGHSGCVTGLKFSSNGENLVSSSGDRLLKLWDLSATRCIQSLAGHGDGVNDVAWSA-AGLIASCSDDMTVRLWDARSKLCVKVLEGHSRYSFSCCFNPQANLLASTSFDETVRLWDVRTGKTLKIVHAHQDPITSVDFHRDGNIFVTSSYDGLVRLWDSSTGHVLKTLVDVDNIPVGYVKFSPNGRYILSSTLNNTLRLWNYKKPKCMRTYRGHLNEFYCSNSNFSTTGGIWIVSGSEDNTLCIWNLQTRELVQKISTEGDQILSTHCHPTANVIASGALQNSYAIKIWKS
retro_dmel_70	drosophila_melanogaster	FBgn0040377		2R	11429041	11429782	+	KNOWN_PROTEIN_CODING	FBgn0022097			83.94	0	0	0	FBpp0070434	100	249	0	249	MAAKDRLPIFPSRGAQTLMKSRLAGATKGHGLLKKKADALQMRFRLILGKIIETKTLMGQVMKEAAFSLAEVKFTTGDINQIVLQNVTKAQIKIRTKKDNVAGVTLPIFEPYTDGVDTYELAGLARGGQQLAKLKKNYQSAVRLLVQLASLQTSFVTLDDVIKVTNRRVNAIEHVIIPRINRTIEYIISELDELEREEFYRLKKIQDKKREARKASDKLRAEQRLLGQMAEAQEVQNILDEDGDEDLLF	MSGKDRLPIFPSRGAQMLMKARLAGAQKGHGLLKKKADALQMRFRLILGKIIETKTLMGDVMKEAAFSLAEAKFTSGDINQVVLQNVTKAQIKIRTKKDNVAGVTLPVFESYQDGSDTYELAGLARGGQQLAKLKKNYQSAVKLLVELASLQTSFVTLDEVIKITNRRVNAIEHVIIPRIDRTLAYIISELDELEREEFYRLKKIQDKKREARIKADAKKAE--LLQQGIDVRQQANILDE-GDDDVLF
retro_dmel_71	drosophila_melanogaster	FBgn0259209		3R	2939993	2941481	-	KNOWN_PROTEIN_CODING	FBgn0014863	FBgn0261238		70.75	0	0	0	FBpp0288975	60.29	486	191	484	DMAPKA-SIINVEQIQAPIGEGCPRCGGVVFAAEQVLSKGRSWHRKCFKCRDCTKTLDSIIACDGPDNEVYCKTCYGKKWGPHGYGFACGSSFLQTDGITEENLASERPFVAPDTTSIMAPDGEGCPRCGGAVFAAELQLSKGKMYHRKCFNCARCTRPLDSVLACDGPDDNIYCKLCYAKLFGPKGVGYGHTPTLVSTNYEYTPSCWGTIDRNGQKSENGCPRCGFMVFAAEQVKSAKNVWHKLCFYCMECRKYLDSTNLNDGPDGGIYCRSCYAKFYGPKGVGYGIGAGTLT	DGAPQIRAAIDVDKIQARPGEGCPRCGGVVYAAEQKLSKGREWHKKCFNCKDCHKTLDSINASDGPDRDVYCRTCYGKKWGPHGYGFACGSGFLQTDGLTEDQISANRPFYNPDTTSIKARDGEGCPRCGGAVFAAEQQLSKGKVWHKKCYNCADCHRPLDSVLACDGPDGDIHCRACYGKLFGPKGFGYGHAPTLVSTSGESTIQFPDGRPLAGPKTSGGCPRCGFAVFAAEQMISKTRIWHKRCFYCSDCRKSLDSTNLNDGPDGDIYCRACYGRNFGPKGVGYGLGAGALT
retro_dmel_72	drosophila_melanogaster	FBgn0250874		2L	22079687	22080719	+	KNOWN_PROTEIN_CODING	FBgn0032971			61.63	0	0	0	FBpp0070474	60.28	428	148	406	FAIFGGSAVAAGFWAVYEFGKPEVDPNGQPIEDEFTHKPLVQQYLQRMWKSIHYYQRMIQEPSRAKLLPDPLKPPYVQPRYTLVLEMKDVLVHPDWTYQTGWRFKKRPGVDHFLAECAKDFEIVVFTAEQGMTVFPILDALDPNGYIMYRLVRDATHFVDGHHVKNLDNLNRDLKKVIVVDWDANATKMHPDNTFGLARWHGNDDDGQLLDLIAFLKIIAQNNVDDVREVLHYYRQFDDPINQFRENQRKLAEQMLEA	YSVVLGSLFSIVMWAIYKLGKPEEDHRG-PIEDEFSQLPWFRQYIMRMWHTLQYYEKMMEEPQMARLLPNVVPPPYIQPPYSLVLEIKDVLVHPDWTYQTGWRFKKRPGVDYFLQQCSRNFEIVIYTSEQGMTAFPLLDALDPYGYIKYRLVRGATDLVEGQHTKNLDYLNRDLSRVIVVDCDPYTTPLHPDNSLVLTKWLGNDDDVQLFDLTAFLQLIAEHQVNDVREVLRYYRQFEDPMEQFKDNQRRLQEQSQES
retro_dmel_73	drosophila_melanogaster	FBgn0038017		2L	7471545	7472205	+	KNOWN_PROTEIN_CODING	FBgn0031918			59.3	0	0	0	FBpp0082040	88.64	220	25	220	RLEPPNPQLCAQRVIHEKTPDGKG----YFFSWRDPQLKGVEEDWLTARNYCRRRCMDSVSLETSLENEWIKQYVVRENVKYIWTSGRLCDFKGCDRPDLQPTNINGWFWTATLQKLAPTTERNQGDWSPTGGIGLPQPDNREYKQNGAPENCLALLNQFYNDGVNWHDVACHHKKSFVCEENDALLKYVRYTNPNLRI	RLALPDPRSCANRVRHASYRDARGVSHSYFFSWEHAPTRSLEVDWLDARNICRRHCMDAVSLETPQENDFVKQRIARGNVRYIWTSGRKCNFAGCDRPDLQPPNENGWFWSGSGAKIGPTSQRNTGDWSSTGGYQQPQPDNREAAQ-GNDESCLSILNNFYNDGIKWHDVACHHIKPFVCEDSDELLNFVRSRNPNVRL
retro_dmel_74	drosophila_melanogaster	FBgn0016041		2R	2113229	2114252	+	KNOWN_PROTEIN_CODING	FBgn0033074	FBgn0263144		74.92	0	0	0	FBpp0305890	85.76	344	49	344	AAAKDAALENPGTVEELHKKCKDIQAITFEGAKIMLNKGLSNHFQVSHTINMSNVVPSGYRFGATYVGTKEFSPTEAFPVLLGDIDPAGNLNANVIHQFSARLRCKFASQIQESKVVASQLTTDYRGSDYTLSLTVANPSIFTNSGVVVGQYLQSVTPALALGSELAYQFGPNVPGRQIAIMSVVGRYTAGSSVWSGTLGQSGLHVCYYQKASDQLQIGAEVETSLRMQESVATLAYQIDLPKANLVFRGGIDSNWQIFGVLEKRLAPLPFTLALSGRMNHVKNNFRLGCGLMIG	AEAKKPELTNPGTLEELHSRCRDIQANTFEGAKIMVNKGLSNHFQVTHTINMNSAGPSGYRFGATYVGTKQYGPTEAFPVLLGEIDPMGNLNANVIHQLTSRLRCKFASQFQDSKLVGTQLTGDYRGRDYTLTLTMGNPGFFTSSGVFVCQYLQSVTKRLALGSEFAYHYGPNVPGRQVAVLSAVGRYAFGDTVWSCTLGPAGFHLSYYQKASDQLQIGVEVETNIRQQESTATVAYQIDLPKADLVFRGSLDSNWLISGVLEKRLQPLPFSLAISGRMNHQKNSFRLGCGLMIG
retro_dmel_75	drosophila_melanogaster	FBgn0031047		2L	9013049	9013922	-	KNOWN_PROTEIN_CODING	FBgn0032089			69.12	0	0	0	FBpp0074512	89.47	304	20	292	QQQTEQEKVYQWINELAHPDTRETALLELSKKRETDLAPMLWNSFGTACALLQEIVNIYPSITPPTLTAHQSNRVCNALALLQCVASHPETRTAFLQAQIPLYLYPFLSTTSKTRPFEYLRLTSLGVIGALVKTDEQEVITFLLTTEIVPLCLSIMDSGSELSKTVATFIIQKILLDESGLSYICQTYERFSHVAITLGKMVIQLAKDPCARLLKHVVRCYLRLSDNTRARKALGQCLPDQLRDGTFALCLQEDKSTKQWLQMLLKNLELGA	QQQAEREKVYQLIIELAYPATRETALLELSKNTYADLAPMLWKSVGTTCTLLQEIVNIYPIITTPVLKANQSNRVCYALTLLQCVASHPETRPAFLRDQIPMYLYPFLSTTFKSRPFEQLRLTTLGVINALAETGDTEVLIFLIWSEVVPHCLTNMVRGSKLTKIAATSILEKILLDEMGLTYICENHDRFSQVAITLGKMVIHMLKFPCLRVLKHVVRCYLLLTENARARSALRVCLPDLLRDGTFTSLVQHDTCTKQWLQMLLKNLQTNA
retro_dmel_76	drosophila_melanogaster	FBgn0262559		3L	12965625	12966669	+	KNOWN_PROTEIN_CODING	FBgn0036328			57.47	0	0	0	FBpp0082985	91.07	336	25	331	KVTVCGAAGGIGQPLSLLLKQNPLVTDLALYDIVHTPGVAADLSHIDTKSKTAGFIGADQLGDSLKGSDVVVIPAGVPRKPGMTRDDLFNVNAGIIKDISNSIAKNCPKALVAIITNPVNTCVPIAAEILKKAGVYDPKRLFGVSTLDVVRARAFIGHALGVDPQTVQIPVIGGHSGVTILPVLSQSQPLFKGNQDTIEKLTVRIQEAGTEVVKAKAGAGSATLSMAYAGARFAGSLLKGLNGEKN--VIECSYVQSTVTEATFFSTPLVLGKNGVQENLGLPKLNDYEKKLLEAAIPELKKNIQKGI	KVAVVGSVGGIGQPLSLLLKHNPQISTLSLYDIKNTTGVGVDLSHINTRASVCPFEGKNGLKKAMDKADIVVIPAGLPRKPGMKREDLVDVNASVACEVAFAASEVCPGAMLAFITNPINVIVPIVATILKAKGTYDPNRLFGVTTLDVVRAQTFVADILNVDPQKVNIPVIGGHTGRTILPILSQCDPPFKGTDKEREALIQRIQNAGTEVVNAKDGLGSATLSMAFAATQFVSSLIKGIKGSKDECIVECAYVESDVTEAQFFATPLILGPQGVKENTGLPDLDDEERKALNGMLPILKESIAKGI
retro_dmel_77	drosophila_melanogaster	FBgn0011726		X	18633310	18633757	-	KNOWN_PROTEIN_CODING	FBgn0030951			52.7	0	0	0	FBpp0072097	100	148	0	148	MASGVTVSDVCKTTYEEIKKDKKHRYVIFYIRDEKQIDVETVADRNAEYDQFLEDIQKCGPGECRYGLFDFEYMHQCQGTSESSKKQKLFLMSWCPDTAKVKKKMLYSSSFDALKKSLVGVQKYIQATDLSEASREAVEEKLRATDRQ	MASGINLSRECQHVFEQIRKLKQHRYAVFVIQDEREIKVEVLGVREANYDDFLADLQRAGSNQCRFAVYDYEYQHQCQGTLSTCLKEKLILMLWCPTLARIKDKMLYSSTFAVLKREFPGVQKCIQATEPEEACRNAVEEQLRSLDRE
retro_dmel_78	drosophila_melanogaster	FBgn0086687		3L	11016638	11017706	+	KNOWN_PROTEIN_CODING	FBgn0029172			58.45	0	0	0	FBpp0082095	91.12	383	34	383	EDSTGVLFECDVETTDGGLVKDITVMKKAEKRRLKLVWRNIIAFGYLHLAALYGAYLMVTSAKWQTCILAYFLYVISGLGITAGAHRLWAHRSYKAKWPLRVILVIFNTIAFQDAAYHWARDHRVHHKYSETDADPHNATRGFFFSHVGWLLCKKHPEVKAKGKGVDLSDLRADPILMFQKKYYMILMPIACFIIPTVVPMYAWGESFMNAWFVATMFRWCFILNVTWLVNSAAHKFGGRPYDKFINPSENISVAILAFGEGWHNYHHVFPWDYKTAEFGKYSLNFTTAFIDFFAKIGWAYDLKTVSTDIIKKRVKRTGDGTHATWGWGDVDQPKEEIEDAVITHKKSE	KDTTGVLYESDVETVDGGLSTELSNRKTTDGSKLELVWVNIVLFVILHISSLYGVWLLFTSATWTTVVLFWPTVVVTILGVSGGAHRLWAHRTFKANTPLKLIFLFLNTLAFQDAVYYWARDHRVHHKYTETDADPYNSQRGWFFAHIGWLCCRKHPEVVEKGKQIDLSDLEADPLIMFQKKYYLLLMPIICFVLPTVLPMYLWGESLNVSWHVMALLRWCLSLNLIWTVNSSAHMHGMRPYDKNICPVDQGFLIFFRVGEGYHNYHHVFPWDYKSAELGKYSQDVTTKFIEFMAYLGWAYDLKSVSLDLVKQRVQRSGDGSHPVWGWGDKDQLKEDVGVTTITHQRNE
retro_dmel_79	drosophila_melanogaster	FBgn0033203		X	6236170	6237391	+	KNOWN_PROTEIN_CODING	FBgn0029866			54.97	0	0	0	FBpp0087995	92.62	325	22	323	IYLLRQYMQGGQFTTKTNETGRVAIVTGCNQGIGKETVLELARRGATVYMACRDMKKCENARREIIKATNNQNIFARQLDLCSMKSIRNFAAGFKREQNKLHILINNAGIMDCPKMLTEDGFEMQIGVNHMGHFLLTLLLLDVLKSSAPSRVVVLSSIAHRFGRIKRDDLNSEKSYDRKM-AYCQSKLANVLFTRELAKRLSGTGVTVNALHPGVVNTELFRNTPFLGSWFGKLLIAPIIWIFIKTARNGAQTTLYAALDPSLEKVSGRYFSDCKQKHVGSAAQYDDDAQFLWAESEKWTGI	MWLLRKCIQGPAYRKANRIDGKVVIVTGCNTGIGKETVLELAKRGARVYMACRDPGRCEAARLDIMDRSRNQQLFNRTLDLGSLQSVRNFVERFKAEESRLDILINNAGVMACPRTLTADGFEQQFGVNHLGHFLLTNLLLDRLKHSSPSRIVVVSSAAHLFGRINREDLMSEKNYSKFFGAYSQSKLANILFTLKLSTILKDTGVTVNCCHPGVVRTEI--NRHFSGPGWMKTALQKGSLYFFKTPKAGAQTQLRLALDPQLEGSTGGYYSDCMRWPLFPWVRNMQTADWLWRESEKLLGL
retro_dmel_80	drosophila_melanogaster	FBgn0011745		2R	12661924	12663055	+	KNOWN_PROTEIN_CODING	FBgn0011743			51.78	0	0	0	FBpp0082121	97.07	376	11	376	VVIDNGSGVIKAGFAGEHIPKCRFPNYIGRPKHVRVMAGALEGDIFVGPKAEEHRGLLSIRYPMEHGIVTDWNDMERIWSYIYSKEQLATFTEDHPVLLTEAPLNPRRNREKAAEFFFEGINAPALFVSMQAVLSLYATGRVTGVVLDSGDGVTHAVPIYEGFAMPHSIMRVDIAGRDVTRYLKTLIRREGFNFRSTAEFEIVRSIKEKVCYLATNPQKEETVETEKFAYKLPDGKIFEIGPARFRAPEVLFRPDLLGEECEGIHDVLMYSIEKSDMDLRKMLYQNIVLSGGSTLFKGFGDRLLSELKKHSAKDLKIRIAAPQERLYSTWMGGSILASLDTFKKMWISKREYEEEGQKAVHRKTF	VVIDNGSGVCKAGFSPEDTPRAVFPSIVGRPRHLNVLLDSVIGDSVIGEAAARKRGILTLKYPIEHGMVKNWDEMEMVWQHTY--ELLRADPMDLPALLTEAPLNPKKNREKMTEIMFEHFQVPAFYVAVQAVLSLYATGRTVGIVVDSGDGVTHTVPIYEGFALPHACVRVDLAGRDLTDYLCKLLLERGVTMGTSAEREIVREIKEKLCYVSMNYAKEMDLHGKVETYELPDGQKIVLGCERFRCPEALFQPSLLGQEVMGIHEATHHSITNCDMDLRKDMYANIVLSGGTTMFRNIEHRFLQDLTEMAPPSIRIKVNASPDRRFSVWTGGSVLASLTSFQNMWIDSLEYEEVGSAIVHRKCF
retro_dmel_81	drosophila_melanogaster	FBgn0003134		2R	17768978	17769953	-	KNOWN_PROTEIN_CODING	FBgn0025573	FBgn0085397		63.7	0	0	0	FBpp0084026	89.3	327	4	296	MNIDSIISRLLEVRGARPGKNVQLSESEIRSLCLKSREIFLSQPILLELEAPLKICGDIHGQYYDLLRLFEYGGFPPESNYLFLGDYVDRGKQSLETICLLLAYKIKYAENFFLLRGNHECASINRIYGFYDECKRRYTIKLWKTFTDCFNCLPVAAIVDEKIFCCHGGLSPDLSSMEQIRRIMRPTDVPDQGLLCDLLWSDPDKDTMGWGENDRGVSFTFGAEVVGKFLQKHEFDLICRAHQVVEDGYEFFAKRQLVTLFSAPNYCGEFDNAGAMMSVDDTLMCSFQILKP	INLDQIIAKLKLI--GEIGSVVQISVREIEAVCSRAREVLLKQPTLLEIPAPINLLGDIHGQYLNLLRYFESNGYPPDSVYLLLGDYVDRGKQSIETLTLLLALKARYPTKFYLLRGNHECSSINHFYGFYDECKRRYTVKLWRTFVDCYNCLPLAAIIEENIFCCHGGLSPHLFSMQQIREIRRPIEIPESGLICDILWSDPDLRIMGWGPNERGVSHTFGSDVVSAFLHRFKLNLICRGHQVVEDGYEFFAKRQLITIFSAPNYCGEFDNAGAMMCINQDLLCTFRVQRP
retro_dmel_82	drosophila_melanogaster	FBgn0020513		2L	12453672	12454783	+	KNOWN_PSEUDOGENE	FBgn0032437			67.65	1	0	0	FBpp0073538	86.25	429	0	370	MSTTTTASIEGYKLGKVIIEGKTKQVYDLPEQPGLCLLLSKDRITAGDGVKAHDLAGKAEISNTTNGQVFRLLNEAGIRTAYVKQCGAKAFIARKCQMIPIEWVTRRLATGSFLKRNVGVPEGYRFSPPKQETFFKDDANHDPQWSEEQIVSAKFELNGLVIGQDEVDIMRRTTLLVFEILERAWQTKNCALIDMKVEFGICDDGNIVLADIIDSDSWRLWPAGDKRLMVDKQVYRNLASVTASDLDTVKRNFIWVAEQLADIVPKKDHLVVILMGSASDISHSEKIATSCRSLGLNVELRVSSA-HKGPEETLRIVREYESVMSNLIFVAVAGRSNGLGPVVSGSTNYPVINCPPVKSDNMQVDVWSSLN	LPTMSITTIGGYQLGKILIEGKTKKVYDLPDHPGLCLLLSKDRITAFDGLMAHELQGKAAISNTTNGLVFRLLNEAGIRTAYVDQCGDNAFIARKCQMVHIEWVTRRLATGSFIKLNPEVPEGYRFAPPKQETCFKDDSSHDPLWCDEQILSSNFECNGLIIGADEVQIMRRTSLVVFEVLERAWKTKNCALVDMKVEFGVDEDGNILLADIIDSDTWRIWPAGDKRLMVDKTVYINLDTVTDSDLNTVKRNYSWVIEQLSSIAPPQDHLVVILVSSEMDVEHGEQIATCIGSLGMKVVLRVCSV6SENPEEALQILRTFEAVINNLVFVTVDERLNSLANVISANTSFPVINCTPIQSDTMFMNMWSNSN
